name,address1,city,phone,state,zip,full_address
Dollar General # 4557,12259 Route 30,North Huntingdon,(724) 861-9960,PA,15642,"12259 Route 30 North Huntingdon, PA 15642"
Dollar General # 18393,205 Highland Ave,Herminie,(724) 835-4154,PA,15637,"205 Highland Ave Herminie, PA 15637"
Dollar General # 4384,1701 Lincoln Hwy,North Versailles,(412) 829-0557,PA,15137,"1701 Lincoln Hwy North Versailles, PA 15137"
Dollar General # 8740,4500 Broadway Blvd,Monroeville,(412) 856-9054,PA,15146,"4500 Broadway Blvd Monroeville, PA 15146"
Dollar General # 12330,700 Clay Avenue,Jeannette,(724) 374-4610,PA,15644,"700 Clay Avenue Jeannette, PA 15644"
Dollar General # 7091,5724 Smithfield St,Mckeesport,(412) 751-7492,PA,15135,"5724 Smithfield St Mckeesport, PA 15135"
Dollar General # 19273,3600 Walnut St,Mckeesport,(412) 314-4045,PA,15132,"3600 Walnut St Mckeesport, PA 15132"
Dollar General # 13123,100 Westinghouse Avenue,Wilmerding,(412) 824-2441,PA,15148,"100 Westinghouse Avenue Wilmerding, PA 15148"
Dollar General # 17870,420 Scenery Dr,Elizabeth,(412) 927-3895,PA,15037,"420 Scenery Dr Elizabeth, PA 15037"
Dollar General # 10875,5032 William Penn Hwy,Monroeville,(724) 325-7171,PA,15146,"5032 William Penn Hwy Monroeville, PA 15146"
Dollar General # 14967,740 Lysle Blvd.,Mckeesport,(412) 927-0645,PA,15132,"740 Lysle Blvd. Mckeesport, PA 15132"
Dollar General # 18349,4590 Route 136,Greensburg,(724) 600-2166,PA,15601,"4590 Route 136 Greensburg, PA 15601"
Dollar General # 7927,120 Penn Avenue,Turtle Creek,(412) 646-6190,PA,15145,"120 Penn Avenue Turtle Creek, PA 15145"
Dollar General # 3606,1830 Pennsylvania Ave,West Mifflin,(412) 466-5401,PA,15122,"1830 Pennsylvania Ave West Mifflin, PA 15122"
Dollar General # 7214,1515 Washington Blvd,Mckeesport,(412) 673-2628,PA,15133,"1515 Washington Blvd Mckeesport, PA 15133"
Dollar General # 2037,160 Mt Pleasant Road,West Newton,(724) 872-3124,PA,15089,"160 Mt Pleasant Road West Newton, PA 15089"
Dollar General # 4355,351 Hoffman Blvd,Duquesne,(412) 462-0221,PA,15110,"351 Hoffman Blvd Duquesne, PA 15110"
Dollar General # 3043,430 Route 22,Delmont,(724) 461-5010,PA,15626,"430 Route 22 Delmont, PA 15626"
Dollar General # 10426,995 Greensburg Pike,East Pittsburgh,(412) 646-6210,PA,15112,"995 Greensburg Pike East Pittsburgh, PA 15112"
Dollar General # 9002,28 Monongahela Ave,Glassport,(412) 673-8009,PA,15045,"28 Monongahela Ave Glassport, PA 15045"
Dollar General # 11536,700 Worthington Ave,Clairton,(412) 233-3462,PA,15025,"700 Worthington Ave Clairton, PA 15025"
Dollar General # 542,352 N 2nd Ave,Elizabeth,(412) 384-5397,PA,15037,"352 N 2nd Ave Elizabeth, PA 15037"
Dollar General # 7798,450 S Main St,Greensburg,(724) 836-0650,PA,15601,"450 S Main St Greensburg, PA 15601"
Dollar General # 18916,115 W Pennsylvania Ave,New Stanton,(724) 925-1563,PA,15672,"115 W Pennsylvania Ave New Stanton, PA 15672"
Dollar General # 16740,250 South 3rd Street Suite 104,Youngwood,(724) 635-4148,PA,15697,"250 South 3rd Street Suite 104 Youngwood, PA 15697"
Dollar General # 17953,225 Huff Ave,Greensburg,(724) 221-3100,PA,15601,"225 Huff Ave Greensburg, PA 15601"
Dollar General # 16488,2409 Rte 286,Plum,(724) 519-4251,PA,15239,"2409 Rte 286 Plum, PA 15239"
Dollar General # 14985,5800 Buttermilk Hollow Rd,Pittsburgh,(412) 368-5583,PA,15207,"5800 Buttermilk Hollow Rd Pittsburgh, PA 15207"
Dollar General # 17869,2610 S Braddock Ave,Swissvale,(412) 336-8812,PA,15218,"2610 S Braddock Ave Swissvale, PA 15218"
Dollar General # 18694,1517 State Route 51,Clairton,(412) 729-2526,PA,15025,"1517 State Route 51 Clairton, PA 15025"
Dollar General # 12372,1729 Rostraver Rd,Belle Vernon,(724) 929-3047,PA,15012,"1729 Rostraver Rd Belle Vernon, PA 15012"
Dollar General # 1126,7248 Saltsburg Rd,Pittsburgh,(412) 798-4519,PA,15235,"7248 Saltsburg Rd Pittsburgh, PA 15235"
Dollar General # 19281,7402 Church St,Swissvale,(412) 545-5780,PA,15218,"7402 Church St Swissvale, PA 15218"
Dollar General # 7878,10730 Frankstown Rd,Penn Hills,(412) 731-6041,PA,15235,"10730 Frankstown Rd Penn Hills, PA 15235"
Dollar General # 9694,325 E 8th Ave,Homestead,(412) 461-5644,PA,15120,"325 E 8th Ave Homestead, PA 15120"
Dollar General # 17160,1227 State Route 837,Jefferson Hills,(412) 405-1591,PA,15025,"1227 State Route 837 Jefferson Hills, PA 15025"
Dollar General # 12542,1714 Laketon Road,Wilkinsburg,(412) 263-9689,PA,15221,"1714 Laketon Road Wilkinsburg, PA 15221"
Dollar General # 9159,5142 Route 30 Ste145,Greensburg,(724) 836-5000,PA,15601,"5142 Route 30 Ste145 Greensburg, PA 15601"
Dollar General # 8554,716 Clairton Blvd,Pittsburgh,(412) 650-8255,PA,15236,"716 Clairton Blvd Pittsburgh, PA 15236"
Dollar General # 8972,700 Penn Ave,Wilkinsburg,(412) 243-0768,PA,15221,"700 Penn Ave Wilkinsburg, PA 15221"
Dollar General # 9350,12818 Frankstown Rd,Pittsburgh,(412) 798-3510,PA,15235,"12818 Frankstown Rd Pittsburgh, PA 15235"
Dollar General # 4971,271 Meldon Ave,Donora,(724) 379-5964,PA,15033,"271 Meldon Ave Donora, PA 15033"
Dollar General # 16236,1103 State Route 31,Tarrs,(724) 204-8180,PA,15688,"1103 State Route 31 Tarrs, PA 15688"
Dollar General # 18057,93 Joseph St,Pittsburgh,(412) 884-2969,PA,15227,"93 Joseph St Pittsburgh, PA 15227"
Dollar General # 18119,2708 State Route 119,Crabtree,(724) 237-5991,PA,15624,"2708 State Route 119 Crabtree, PA 15624"
Dollar General # 13983,2211 Mt Pleasant Rd,Mount Pleasant,(724) 289-1796,PA,15666,"2211 Mt Pleasant Rd Mount Pleasant, PA 15666"
Dollar General # 42,1237 W Main St,Monongahela,(724) 292-9015,PA,15063,"1237 W Main St Monongahela, PA 15063"
Dollar General # 7411,465 Donner Ave,Monessen,(724) 684-4953,PA,15062,"465 Donner Ave Monessen, PA 15062"
Dollar General # 12185,3750 Saw Mill Run Blvd,Pittsburgh,(412) 884-5916,PA,15227,"3750 Saw Mill Run Blvd Pittsburgh, PA 15227"
Dollar General # 19267,123 N Sheridan Ave,East Liberty,(412) 626-7257,PA,15206,"123 N Sheridan Ave East Liberty, PA 15206"
Dollar General # 15784,2301 Brownsville Road,South Park,(412) 308-5324,PA,15129,"2301 Brownsville Road South Park, PA 15129"
Dollar General # 16306,720 Rostraver Road,Belle Vernon,(724) 798-0354,PA,15012,"720 Rostraver Road Belle Vernon, PA 15012"
Dollar General # 15559,4725 Centre Ave,Pittsburgh,(412) 314-1944,PA,15213,"4725 Centre Ave Pittsburgh, PA 15213"
Dollar General # 4992,200 S Flower Way,Mount Pleasant,(724) 542-7879,PA,15666,"200 S Flower Way Mount Pleasant, PA 15666"
Dollar General # 7672,494 Pittsburg St,Springdale,(724) 275-0174,PA,15144,"494 Pittsburg St Springdale, PA 15144"
Dollar General # 15114,4215 Rt. 66,Apollo,(724) 568-7036,PA,15613,"4215 Rt. 66 Apollo, PA 15613"
Dollar General # 7673,1811 Main St,Sharpsburg,(412) 230-3273,PA,15215,"1811 Main St Sharpsburg, PA 15215"
Dollar General # 2447,110 Mckean Ave,Charleroi,(724) 483-1740,PA,15022,"110 Mckean Ave Charleroi, PA 15022"
Dollar General # 19007,700 E Warrington Ave,Pittsburgh,(412) 485-0120,PA,15210,"700 E Warrington Ave Pittsburgh, PA 15210"
Dollar General # 7045,3060 Sussex Ave,Pittsburgh,(412) 822-6095,PA,15226,"3060 Sussex Ave Pittsburgh, PA 15226"
Dollar General # 13996,6239 Route 88,Finleyville,(724) 299-1203,PA,15332,"6239 Route 88 Finleyville, PA 15332"
Dollar General # 817,5000 Library Rd,Bethel Park,(412) 851-3895,PA,15102,"5000 Library Rd Bethel Park, PA 15102"
Dollar General # 10207,101 Constitution St,Perryopolis,(724) 736-2417,PA,15473,"101 Constitution St Perryopolis, PA 15473"
Dollar General # 8024,818 Crossroads Plz,Mount Pleasant,(724) 547-0162,PA,15666,"818 Crossroads Plz Mount Pleasant, PA 15666"
Dollar General # 10729,412 Pittsburgh St,Scottdale,(724) 220-4155,PA,15683,"412 Pittsburgh St Scottdale, PA 15683"
Dollar General # 14903,797 Industrial Blvd.,New Kensington,(724) 472-8320,PA,15068,"797 Industrial Blvd. New Kensington, PA 15068"
Dollar General # 2561,810 Ligonier St,Latrobe,(724) 537-8160,PA,15650,"810 Ligonier St Latrobe, PA 15650"
Dollar General # 3975,1032 Latrobe 30 Plz #401,Latrobe,(724) 532-3316,PA,15650,"1032 Latrobe 30 Plz #401 Latrobe, PA 15650"
Dollar General # 10277,1695 Mcfarland Rd,Pittsburgh,(412) 314-4984,PA,15216,"1695 Mcfarland Rd Pittsburgh, PA 15216"
Dollar General # 10203,315 Cochran Rd,Mount Lebanon,(412) 561-0283,PA,15228,"315 Cochran Rd Mount Lebanon, PA 15228"
Dollar General # 19008,1215 Brighton Rd,Pittsburgh,(412) 392-7150,PA,15233,"1215 Brighton Rd Pittsburgh, PA 15233"
Dollar General # 8779,3247 Leechburg Rd,Lower Burrell,(724) 334-5860,PA,15068,"3247 Leechburg Rd Lower Burrell, PA 15068"
Dollar General # 19684,1701 Babcock Blvd,Millvale,(412) 821-1748,PA,15209,"1701 Babcock Blvd Millvale, PA 15209"
Dollar General # 9007,1916 Lincoln Rd,Latrobe,(724) 539-8903,PA,15650,"1916 Lincoln Rd Latrobe, PA 15650"
Dollar General # 13449,600 Chester Avenue,Roscoe,(724) 938-2076,PA,15477,"600 Chester Avenue Roscoe, PA 15477"
Dollar General # 19766,105 Kenmont Ave,Lower Burrell,(724) 304-8013,PA,15068,"105 Kenmont Ave Lower Burrell, PA 15068"
Dollar General # 14189,4402 State Route 981,Avonmore,(724) 697-1393,PA,15618,"4402 State Route 981 Avonmore, PA 15618"
Dollar General # 8892,404 Leech Ave,Saltsburg,(724) 639-3287,PA,15681,"404 Leech Ave Saltsburg, PA 15681"
Dollar General # 8103,131 Bradford Ave,Crafton,(412) 922-9010,PA,15205,"131 Bradford Ave Crafton, PA 15205"
Dollar General # 247,201 Wood St,California,(724) 938-9162,PA,15419,"201 Wood St California, PA 15419"
Dollar General # 18539,2872 Route 31,Acme,(724) 849-0149,PA,15610,"2872 Route 31 Acme, PA 15610"
Dollar General # 4865,105 Wilson Rd,Bentleyville,(724) 239-3361,PA,15314,"105 Wilson Rd Bentleyville, PA 15314"
Dollar General # 20276,523 Franklin Ave,Vandergrift,(724) 567-7279,PA,15690,"523 Franklin Ave Vandergrift, PA 15690"
Dollar General # 13486,1710 Broadview Blvd,Natrona Heights,(724) 230-8876,PA,15065,"1710 Broadview Blvd Natrona Heights, PA 15065"
Dollar General # 7003,2412 Ferguson Rd,Allison Park,(412) 492-9104,PA,15101,"2412 Ferguson Rd Allison Park, PA 15101"
Dollar General # 7220,1900 River Road,North Apollo,(724) 567-3769,PA,15673,"1900 River Road North Apollo, PA 15673"
Dollar General # 4313,1001 S Leechburg Hll Rd 2,Leechburg,(814) 380-9492,PA,15656,"1001 S Leechburg Hll Rd 2 Leechburg, PA 15656"
Dollar General # 4436,608 Route 217,Latrobe,(724) 694-0177,PA,15650,"608 Route 217 Latrobe, PA 15650"
Dollar General # 4607,491 Lincoln Ave,Bellevue,(412) 761-0369,PA,15202,"491 Lincoln Ave Bellevue, PA 15202"
Dollar General # 8549,425 Perry Hwy,West View,(412) 307-7870,PA,15229,"425 Perry Hwy West View, PA 15229"
Dollar General # 20044,4706 Route 8,Allison Park,(412) 453-6455,PA,15101,"4706 Route 8 Allison Park, PA 15101"
Dollar General # 2133,143 N 8th St,Connellsville,(724) 628-0770,PA,15425,"143 N 8th St Connellsville, PA 15425"
Dollar General # 2643,500 Pine Hollow Rd,Mckees Rocks,(412) 331-2991,PA,15136,"500 Pine Hollow Rd Mckees Rocks, PA 15136"
Dollar General # 15169,120 Three Degree Rd Suite A,Pittsburgh,(412) 213-5946,PA,15237,"120 Three Degree Rd Suite A Pittsburgh, PA 15237"
Dollar General # 14688,325 State Route 66,Leechburg,(724) 845-0902,PA,15656,"325 State Route 66 Leechburg, PA 15656"
Dollar General # 7139,115 Roberts Rd,Grindstone,(724) 785-9792,PA,15442,"115 Roberts Rd Grindstone, PA 15442"
Dollar General # 19485,289 Oak Rd,Gibsonia,(412) 227-1610,PA,15044,"289 Oak Rd Gibsonia, PA 15044"
Dollar General # 17320,1661 State Route 56,Spring Church,(724) 567-3034,PA,15686,"1661 State Route 56 Spring Church, PA 15686"
Dollar General # 16359,3220 National Pike,Fredericktown,(724) 705-0695,PA,15333,"3220 National Pike Fredericktown, PA 15333"
Dollar General # 13237,145 Adams Ave,Canonsburg,(724) 749-4213,PA,15317,"145 Adams Ave Canonsburg, PA 15317"
Dollar General # 16360,3865 Route 31,Jones Mills,(724) 259-3276,PA,15646,"3865 Route 31 Jones Mills, PA 15646"
Dollar General # 16630,15 S Morrow Street,Blairsville,(724) 343-1153,PA,15717,"15 S Morrow Street Blairsville, PA 15717"
Dollar General # 7278,122 S Fairfield St,Ligonier,(724) 238-0604,PA,15658,"122 S Fairfield St Ligonier, PA 15658"
Dollar General # 17987,3575 Millers Run Rd,Cecil,(724) 749-5454,PA,15321,"3575 Millers Run Rd Cecil, PA 15321"
Dollar General # 17413,604 S Pike Rd Ste 200,Sarver,(724) 540-3000,PA,16055,"604 S Pike Rd Ste 200 Sarver, PA 16055"
Dollar General # 6675,124 W Pike St,Houston,(724) 271-8175,PA,15342,"124 W Pike St Houston, PA 15342"
Dollar General # 12079,121 Sr 166,Republic,(724) 246-2105,PA,15475,"121 Sr 166 Republic, PA 15475"
Dollar General # 11347,3373 Springfield Pike,Normalville,(724) 455-8401,PA,15469,"3373 Springfield Pike Normalville, PA 15469"
Dollar General # 4990,926 5th Ave,Coraopolis,(412) 264-4435,PA,15108,"926 5th Ave Coraopolis, PA 15108"
Dollar General # 11328,315 W Barr St,Mcdonald,(724) 926-2054,PA,15057,"315 W Barr St Mcdonald, PA 15057"
Dollar General # 2096,612 Pittsburgh Rd,Uniontown,(724) 438-5340,PA,15401,"612 Pittsburgh Rd Uniontown, PA 15401"
Dollar General # 14216,1236 Connellsville St.,Lemont Furnace,(724) 620-6029,PA,15456,"1236 Connellsville St. Lemont Furnace, PA 15456"
Dollar General # 7065,474 N Gallatin Ave,Uniontown,(724) 439-5627,PA,15401,"474 N Gallatin Ave Uniontown, PA 15401"
Dollar General # 3388,470 Penn Lincoln Dr,Imperial,(724) 695-7781,PA,15126,"470 Penn Lincoln Dr Imperial, PA 15126"
Dollar General # 17391,273 Mcclellandtown Rd,Uniontown,(724) 320-3570,PA,15401,"273 Mcclellandtown Rd Uniontown, PA 15401"
Dollar General # 8249,403 W Main Street,Saxonburg,(724) 352-7150,PA,16056,"403 W Main Street Saxonburg, PA 16056"
Dollar General # 8758,710 Jefferson Ave,Washington,(724) 705-1601,PA,15301,"710 Jefferson Ave Washington, PA 15301"
Dollar General # 10354,935 Henderson Ave Ste 103,Washington,(724) 250-8029,PA,15301,"935 Henderson Ave Ste 103 Washington, PA 15301"
Dollar General # 13148,968 N. Eighty Eight Rd.,Rices Landing,(724) 592-5710,PA,15357,"968 N. Eighty Eight Rd. Rices Landing, PA 15357"
Dollar General # 13619,1137 National Pike Hwy.,Uniontown,(724) 320-2283,PA,15401,"1137 National Pike Hwy. Uniontown, PA 15401"
Dollar General # 15903,176 Main St,Hickory,(724) 705-0219,PA,15340,"176 Main St Hickory, PA 15340"
Dollar General # 17751,1110 Clinton Rd,Clinton,(724) 213-2680,PA,15026,"1110 Clinton Rd Clinton, PA 15026"
Dollar General # 7183,612 Merchant St,Ambridge,(724) 251-9573,PA,15003,"612 Merchant St Ambridge, PA 15003"
Dollar General # 18207,11268 Us Route 422,Elderton,(724) 471-0237,PA,15736,"11268 Us Route 422 Elderton, PA 15736"
Dollar General # 17257,2180 Park Ave,Washington,(724) 705-0034,PA,15301,"2180 Park Ave Washington, PA 15301"
Dollar General # 14159,8387 State Rte 422 West,Shelocta,(724) 354-3216,PA,15774,"8387 State Rte 422 West Shelocta, PA 15774"
Dollar General # 7156,398 S Eighty Eight Rd,Carmichaels,(724) 966-2079,PA,15320,"398 S Eighty Eight Rd Carmichaels, PA 15320"
Dollar General # 4323,1888 Mcclellandtown Rd,Masontown,(724) 583-9346,PA,15461,"1888 Mcclellandtown Rd Masontown, PA 15461"
Dollar General # 3315,2100 Brodhead,Aliquippa,(724) 378-1538,PA,15001,"2100 Brodhead Aliquippa, PA 15001"
Dollar General # 15942,1500 Fourth Ave,Ford City,(484) 551-8470,PA,16226,"1500 Fourth Ave Ford City, PA 16226"
Dollar General # 4419,110 S Main St,Homer City,(724) 479-4009,PA,15748,"110 S Main St Homer City, PA 15748"
Dollar General # 14300,379 Pittsburgh Rd.,Butler,(724) 256-4401,PA,16002,"379 Pittsburgh Rd. Butler, PA 16002"
Dollar General # 18469,546 Georges Fairchance Rd,Uniontown,(724) 897-7400,PA,15401,"546 Georges Fairchance Rd Uniontown, PA 15401"
Dollar General # 14225,215 13th Street,New Florence,(724) 235-8714,PA,15944,"215 13th Street New Florence, PA 15944"
Dollar General # 7416,112 S Washington St,Masontown,(724) 583-9080,PA,15461,"112 S Washington St Masontown, PA 15461"
Dollar General # 12765,2440 Philadelphia St,Indiana,(724) 471-6723,PA,15701,"2440 Philadelphia St Indiana, PA 15701"
Dollar General # 18160,367 Freeport Rd,Butler,(724) 256-4843,PA,16002,"367 Freeport Rd Butler, PA 16002"
Dollar General # 10247,2 Franklin Village Mall,Kittanning,(724) 919-4016,PA,16201,"2 Franklin Village Mall Kittanning, PA 16201"
Dollar General # 14032,2820 Mogantown Rd,Smithfield,(724) 564-2609,PA,15478,"2820 Mogantown Rd Smithfield, PA 15478"
Dollar General # 749,2156 Sheffield Rd,Aliquippa,(724) 252-4800,PA,15001,"2156 Sheffield Rd Aliquippa, PA 15001"
Dollar General # 4274,13606 Sr 422,Kittanning,(724) 382-7015,PA,16201,"13606 Sr 422 Kittanning, PA 16201"
Dollar General # 6081,1297 Pitt St,Jennerstown,(814) 629-5217,PA,15547,"1297 Pitt St Jennerstown, PA 15547"
Dollar General # 15407,3701 National Pike,Farmington,(724) 780-2074,PA,15437,"3701 National Pike Farmington, PA 15437"
Dollar General # 4242,421 N 4th St,Indiana,(724) 463-1866,PA,15701,"421 N 4th St Indiana, PA 15701"
Dollar General # 8412,6858 Route 711 Ste 8,Seward,(814) 446-1067,PA,15954,"6858 Route 711 Ste 8 Seward, PA 15954"
Dollar General # 8978,230 Greater Butler Mart,Butler,(724) 214-1035,PA,16001,"230 Greater Butler Mart Butler, PA 16001"
Dollar General # 18429,1990 S Eighty Eight Rd,Greensboro,(570) 754-8086,PA,15338,"1990 S Eighty Eight Rd Greensboro, PA 15338"
Dollar General # 115,1475 E High St,Waynesburg,(724) 627-0985,PA,15370,"1475 E High St Waynesburg, PA 15370"
Dollar General # 15370,110 Pleasant Drive,Aliquippa,(724) 252-4965,PA,15001,"110 Pleasant Drive Aliquippa, PA 15001"
Dollar General # 16976,511 Route 422 East,Butler,(724) 602-4469,PA,16002,"511 Route 422 East Butler, PA 16002"
Dollar General # 2758,119 N Main St,Butler,(724) 282-1794,PA,16001,"119 N Main St Butler, PA 16001"
Dollar General # 16806,4541 Rte 40,Claysville,(724) 566-5287,PA,15323,"4541 Rte 40 Claysville, PA 15323"
Dollar General # 7646,4306 Glades Pike,Somerset,(814) 443-6777,PA,15501,"4306 Glades Pike Somerset, PA 15501"
Dollar General # 4403,1606 N Center Ave Ste 160,Somerset,(814) 443-4547,PA,15501,"1606 N Center Ave Ste 160 Somerset, PA 15501"
Dollar General # 15723,521 Evans City Road,Butler,(724) 482-5274,PA,16001,"521 Evans City Road Butler, PA 16001"
Dollar General # 10025,300 Brighton Ave,Rochester,(724) 775-1232,PA,15074,"300 Brighton Ave Rochester, PA 15074"
Dollar General # 5817,4065 3rd St,Nu Mine,(814) 718-0995,PA,16244,"4065 3rd St Nu Mine, PA 16244"
Dollar General # 3322,295 Butler Cmns,Butler,(724) 284-3718,PA,16001,"295 Butler Cmns Butler, PA 16001"
Dollar General # 11772,1623 Penn Ave,Hollsopple,(814) 479-2096,PA,15935,"1623 Penn Ave Hollsopple, PA 15935"
Dollar General # 2973,1708 Lyter Dr,Johnstown,(814) 255-5173,PA,15905,"1708 Lyter Dr Johnstown, PA 15905"
Dollar General # 11477,200 State Ave,Beaver,(724) 774-1752,PA,15009,"200 State Ave Beaver, PA 15009"
Dollar General # 6964,234 E Main St,Somerset,(814) 483-7009,PA,15501,"234 E Main St Somerset, PA 15501"
Dollar General # 7063,820 Casselman St,Confluence,(814) 395-9626,PA,15424,"820 Casselman St Confluence, PA 15424"
Dollar General # 9120,340 Sheridan St,Johnstown,(814) 539-6212,PA,15906,"340 Sheridan St Johnstown, PA 15906"
Dollar General # 8757,1627 N Main Street,Butler,(724) 282-0453,PA,16001,"1627 N Main Street Butler, PA 16001"
Dollar General # 15310,300 Goucher St,Johnstown,(814) 419-6084,PA,15905,"300 Goucher St Johnstown, PA 15905"
Dollar General # 16242,116 South Main Street,Davidsville,(814) 479-8139,PA,15928,"116 South Main Street Davidsville, PA 15928"
Dollar General # 18521,4847 Lincoln Hwy,Stoystown,(814) 267-8465,PA,15563,"4847 Lincoln Hwy Stoystown, PA 15563"
Dollar General # 18478,3414 W Roy Furman Hwy,Waynesburg,(412) 227-9220,PA,15370,"3414 W Roy Furman Hwy Waynesburg, PA 15370"
Dollar General # 8489,151 Southmont Blvd,Johnstown,(814) 619-3436,PA,15905,"151 Southmont Blvd Johnstown, PA 15905"
Dollar General # 18798,83 Steubenville Pike,Burgettstown,(724) 370-0258,PA,15021,"83 Steubenville Pike Burgettstown, PA 15021"
Dollar General # 4839,641 Main St,Johnstown,(814) 619-3436,PA,15901,"641 Main St Johnstown, PA 15901"
Dollar General # 3954,21 Bridge St,Johnstown,(814) 536-5060,PA,15902,"21 Bridge St Johnstown, PA 15902"
Dollar General # 14951,2146 Stoystown Rd,Friedens,(814) 701-4045,PA,15541,"2146 Stoystown Rd Friedens, PA 15541"
Dollar General # 8585,1344 Chicora Rd,Chicora,(724) 602-9470,PA,16025,"1344 Chicora Rd Chicora, PA 16025"
Dollar General # 15390,244 Main St (Rte 210),Plumville,(724) 490-4277,PA,16246,"244 Main St (Rte 210) Plumville, PA 16246"
Dollar General # 14687,1053 New Castle Rd,Prospect,(724) 865-8955,PA,16052,"1053 New Castle Rd Prospect, PA 16052"
Dollar General # 6733,1823 7th Ave,Beaver Falls,(724) 843-1591,PA,15010,"1823 7th Ave Beaver Falls, PA 15010"
Dollar General # 18834,1124 Midland Ave,Midland,(724) 508-3326,PA,15059,"1124 Midland Ave Midland, PA 15059"
Dollar General # 14690,105 Concord Church Road,Beaver Falls,(724) 359-0652,PA,15010,"105 Concord Church Road Beaver Falls, PA 15010"
Dollar General # 9212,175 1st St,Conemaugh,(814) 533-5920,PA,15909,"175 1st St Conemaugh, PA 15909"
Dollar General # 6127,4665 Tuscarawas Rd,Beaver,(724) 417-9956,PA,15009,"4665 Tuscarawas Rd Beaver, PA 15009"
Dollar General # 2679,425 Franklin St,Clymer,(724) 254-1590,PA,15728,"425 Franklin St Clymer, PA 15728"
Dollar General # 2252,1940 William Penn Ave #4,Johnstown,(814) 419-6410,PA,15909,"1940 William Penn Ave #4 Johnstown, PA 15909"
Dollar General # 16863,14609 Route 422 Hwy E,Strongstown,(570) 290-8629,PA,15957,"14609 Route 422 Hwy E Strongstown, PA 15957"
Dollar General # 13985,856 Scalp Avenue,Johnstown,(814) 619-4760,PA,15904,"856 Scalp Avenue Johnstown, PA 15904"
Dollar General # 2968,4801 4th Ave,Beaver Falls,(724) 846-4074,PA,15010,"4801 4th Ave Beaver Falls, PA 15010"
Dollar General # 2040,1513 Scalp Ave Ste 210,Johnstown,(814) 266-7072,PA,15904,"1513 Scalp Ave Ste 210 Johnstown, PA 15904"
Dollar General # 8713,297 Zelienople Rd,Ellwood City,(724) 758-5001,PA,16117,"297 Zelienople Rd Ellwood City, PA 16117"
Dollar General # 18226,8441 Rt 119 Hwy N,Marion Center,(724) 397-0386,PA,15759,"8441 Rt 119 Hwy N Marion Center, PA 15759"
Dollar General # 4225,1985 Lincoln Way,White Oak,(412) 673-5915,PA,15131,"1985 Lincoln Way White Oak, PA 15131"
Dollar General # 9505,2580 Constitution Blvd,Beaver Falls,(724) 846-8233,PA,15010,"2580 Constitution Blvd Beaver Falls, PA 15010"
Dollar General # 18994,109 Main St,Karns City,(814) 561-0111,PA,16041,"109 Main St Karns City, PA 16041"
Dollar General # 2846,1500 Somerset Ave,Windber,(814) 467-6438,PA,15963,"1500 Somerset Ave Windber, PA 15963"
Dollar General # 1305,1515 Shoemaker St,Nanty Glo,(814) 846-4204,PA,15943,"1515 Shoemaker St Nanty Glo, PA 15943"
Dollar General # 17004,7425 Big Beaver Blvd,Wampum,(724) 359-4786,PA,16157,"7425 Big Beaver Blvd Wampum, PA 16157"
Dollar General # 16803,2620 William Flynn Hwy,Slippery Rock,(724) 856-0342,PA,16057,"2620 William Flynn Hwy Slippery Rock, PA 16057"
Dollar General # 2232,1221 Lawrence Ave,Ellwood City,(724) 752-8338,PA,16117,"1221 Lawrence Ave Ellwood City, PA 16117"
Dollar General # 18120,1542 Perry Hwy,Portersville,(814) 786-4252,PA,16051,"1542 Perry Hwy Portersville, PA 16051"
Dollar General # 19633,3245 State Route 28/66,New Bethlehem,(814) 275-2407,PA,16242,"3245 State Route 28/66 New Bethlehem, PA 16242"
Dollar General # 8127,3533 Berlin Plank Rd,Berlin,(814) 533-5998,PA,15530,"3533 Berlin Plank Rd Berlin, PA 15530"
Dollar General # 18053,1375 Forest Hills Dr,Salix,(814) 792-2146,PA,15952,"1375 Forest Hills Dr Salix, PA 15952"
Dollar General # 8395,7376 Route 68,Rimersburg,(814) 473-6495,PA,16248,"7376 Route 68 Rimersburg, PA 16248"
Dollar General # 17942,4029 Ellwood Rd,New Castle,(724) 498-0965,PA,16101,"4029 Ellwood Rd New Castle, PA 16101"
Dollar General # 2039,645 Main St,Central City,(814) 754-5699,PA,15926,"645 Main St Central City, PA 15926"
Dollar General # 16464,125 Huckleberry Highway,Central City,(814) 419-6090,PA,15926,"125 Huckleberry Highway Central City, PA 15926"
Dollar General # 16543,3463 Constitution Blvd,Darlington,(724) 827-7071,PA,16115,"3463 Constitution Blvd Darlington, PA 16115"
Dollar General # 8593,540 Locust St,Sidman,(814) 533-5800,PA,15955,"540 Locust St Sidman, PA 15955"
Dollar General # 7864,612 E Broad St,New Bethlehem,(412) 227-8055,PA,16242,"612 E Broad St New Bethlehem, PA 16242"
Dollar General # 1271,7097 Mason Dixon Hwy,Meyersdale,(814) 634-9092,PA,15552,"7097 Mason Dixon Hwy Meyersdale, PA 15552"
Dollar General # 7772,881 Hills Plz Ste 570,Ebensburg,(814) 471-6917,PA,15931,"881 Hills Plz Ste 570 Ebensburg, PA 15931"
Dollar General # 18835,9178 Mason Dixon Hwy,Salisbury,(301) 895-0145,PA,15558,"9178 Mason Dixon Hwy Salisbury, PA 15558"
Dollar General # 2711,2696 Ellwood Rd,New Castle,(724) 652-0776,PA,16101,"2696 Ellwood Rd New Castle, PA 16101"
Dollar General # 14887,265 Center Avenue,West Pittsburg,(724) 740-4049,PA,16160,"265 Center Avenue West Pittsburg, PA 16160"
Dollar General # 7458,324 Franklin St,Slippery Rock,(724) 602-9382,PA,16057,"324 Franklin St Slippery Rock, PA 16057"
Dollar General # 19677,3409 Perry Highway,New Castle,(724) 652-6475,PA,16101,"3409 Perry Highway New Castle, PA 16101"
Dollar General # 2062,4207 St Stans Ave Ste 3,Northern Cambria,(814) 948-9330,PA,15714,"4207 St Stans Ave Ste 3 Northern Cambria, PA 15714"
Dollar General # 2550,700 Main St,Portage,(814) 736-8131,PA,15946,"700 Main St Portage, PA 15946"
Dollar General # 17819,2330 Harlansburg Rd,New Castle,(724) 856-0522,PA,16101,"2330 Harlansburg Rd New Castle, PA 16101"
Dollar General # 10221,1155 Butler Ave,New Castle,(724) 761-2378,PA,16101,"1155 Butler Ave New Castle, PA 16101"
Dollar General # 19698,454 S Washington St,Eau Claire,(814) 498-1004,PA,16030,"454 S Washington St Eau Claire, PA 16030"
Dollar General # 9928,1509 Moravia St,New Castle,(724) 761-1461,PA,16101,"1509 Moravia St New Castle, PA 16101"
Dollar General # 11253,139 Sunset Rd,Carrolltown,(814) 420-2554,PA,15722,"139 Sunset Rd Carrolltown, PA 15722"
Dollar General # 13218,4360 William Flynn Hwy.,Harrisville,(724) 735-0089,PA,16038,"4360 William Flynn Hwy. Harrisville, PA 16038"
Dollar General # 14205,4160 Edinburg Rd.,New Castle,(724) 761-1446,PA,16102,"4160 Edinburg Rd. New Castle, PA 16102"
Dollar General # 129,213 Hampton Ave,Punxsutawney,(814) 938-2433,PA,15767,"213 Hampton Ave Punxsutawney, PA 15767"
Dollar General # 4903,2205 W State St,New Castle,(724) 654-8003,PA,16101,"2205 W State St New Castle, PA 16101"
Dollar General # 18983,3317 Route 36,Oliveburg,(814) 618-3030,PA,15764,"3317 Route 36 Oliveburg, PA 15764"
Dollar General # 6186,2400 Wilmington Rd,New Castle,(724) 654-5331,PA,16105,"2400 Wilmington Rd New Castle, PA 16105"
Dollar General # 8267,610 River Ave,Emlenton,(814) 498-1020,PA,16373,"610 River Ave Emlenton, PA 16373"
Dollar General # 2559,7477 Admiral Peary Hwy,Cresson,(814) 886-4019,PA,16630,"7477 Admiral Peary Hwy Cresson, PA 16630"
Dollar General # 16329,3857 Pitt St,Schellsburg,(814) 310-3127,PA,15559,"3857 Pitt St Schellsburg, PA 15559"
Dollar General # 2189,427 Magee Ave,Patton,(814) 674-5182,PA,16668,"427 Magee Ave Patton, PA 16668"
Dollar General # 4731,3626 Quaker Valley Rd,Alum Bank,(814) 839-9101,PA,15521,"3626 Quaker Valley Rd Alum Bank, PA 15521"
Dollar General # 18812,10728 Route 66,Clarion,(814) 297-0517,PA,16214,"10728 Route 66 Clarion, PA 16214"
Dollar General # 4428,3316 Wilmington Rd,New Castle,(724) 658-5930,PA,16105,"3316 Wilmington Rd New Castle, PA 16105"
Dollar General # 18023,4110 W State St,Edinburg,(724) 790-4308,PA,16116,"4110 W State St Edinburg, PA 16116"
Dollar General # 4940,1402 W Main St,Grove City,(724) 264-7415,PA,16127,"1402 W Main St Grove City, PA 16127"
Dollar General # 18076,5537 Pittsburgh Rd,Harrisville,(814) 786-4135,PA,16038,"5537 Pittsburgh Rd Harrisville, PA 16038"
Dollar General # 11408,616 Main St,Gallitzin,(814) 408-4210,PA,16641,"616 Main St Gallitzin, PA 16641"
Dollar General # 698,4064 Center St,Hyndman,(484) 504-9813,PA,15545,"4064 Center St Hyndman, PA 15545"
Dollar General # 2229,443 S 5th Ave Ste 20,Clarion,(814) 226-4345,PA,16214,"443 S 5th Ave Ste 20 Clarion, PA 16214"
Dollar General # 7865,760 Miller St,Knox,(814) 297-6138,PA,16232,"760 Miller St Knox, PA 16232"
Dollar General # 18825,16111 Rte 322,Clarion,(814) 297-1468,PA,16214,"16111 Rte 322 Clarion, PA 16214"
Dollar General # 10324,1995 Mercer New Wilmingto,New Wilmington,(724) 946-2878,PA,16142,"1995 Mercer New Wilmingto New Wilmington, PA 16142"
Dollar General # 18851,10208 Route 322,Shippenville,(814) 297-0442,PA,16254,"10208 Route 322 Shippenville, PA 16254"
Dollar General # 4058,12792 Dunnings Hwy (Old Rt 220,Claysburg,(814) 239-8800,PA,16625,"12792 Dunnings Hwy (Old Rt 220 Claysburg, PA 16625"
Dollar General # 503,225 Allegheny Blvd (Sr 36),Brookville,(814) 849-7056,PA,15825,"225 Allegheny Blvd (Sr 36) Brookville, PA 15825"
Dollar General # 18654,1146 Old Route 22,Duncansville,(814) 554-0910,PA,16635,"1146 Old Route 22 Duncansville, PA 16635"
Dollar General # 433,125 W Pitt St,Bedford,(814) 623-5499,PA,15522,"125 W Pitt St Bedford, PA 15522"
Dollar General # 14208,270 W. Liberty,Sykesville,(814) 894-5016,PA,15865,"270 W. Liberty Sykesville, PA 15865"
Dollar General # 8429,514 Greenville Rd,Mercer,(724) 662-1698,PA,16137,"514 Greenville Rd Mercer, PA 16137"
Dollar General # 18986,2535 Glendale Valley Blvd,Flinton,(814) 687-4089,PA,16640,"2535 Glendale Valley Blvd Flinton, PA 16640"
Dollar General # 2818,502 3rd Ave,Duncansville,(814) 695-8881,PA,16635,"502 3rd Ave Duncansville, PA 16635"
Dollar General # 4123,1677 Dorsey Avenue,Irvona,(814) 672-5955,PA,16656,"1677 Dorsey Avenue Irvona, PA 16656"
Dollar General # 17753,1114 Franklin Rd,Jackson Center,(724) 893-8118,PA,16133,"1114 Franklin Rd Jackson Center, PA 16133"
Dollar General # 8310,5992 Route 322,Reynoldsville,(814) 653-8539,PA,15851,"5992 Route 322 Reynoldsville, PA 15851"
Dollar General # 8003,920 31st St,Altoona,(814) 626-8530,PA,16601,"920 31st St Altoona, PA 16601"
Dollar General # 1931,910 E Main St,Roaring Spring,(814) 224-4699,PA,16673,"910 E Main St Roaring Spring, PA 16673"
Dollar General # 17969,1230 14th Ave,Altoona,(814) 626-8460,PA,16601,"1230 14th Ave Altoona, PA 16601"
Dollar General # 11460,3452 Sharon Rd,West Middlesex,(724) 528-1960,PA,16159,"3452 Sharon Rd West Middlesex, PA 16159"
Dollar General # 12436,904 Blair St,Hollidaysburg,(814) 317-9045,PA,16648,"904 Blair St Hollidaysburg, PA 16648"
Dollar General # 11685,2092 Woodbury Pike,Loysburg,(817) 766-3460,PA,16659,"2092 Woodbury Pike Loysburg, PA 16659"
Dollar General # 4081,311 S Lloyd St,Altoona,(814) 943-2544,PA,16602,"311 S Lloyd St Altoona, PA 16602"
Dollar General # 10120,1013 N 4th Ave,Altoona,(814) 626-8544,PA,16601,"1013 N 4th Ave Altoona, PA 16601"
Dollar General # 16619,6125 E State St,Hermitage,(724) 734-5721,PA,16148,"6125 E State St Hermitage, PA 16148"
Dollar General # 18190,1407 Pittsburgh Rd,Franklin,(814) 346-1100,PA,16323,"1407 Pittsburgh Rd Franklin, PA 16323"
Dollar General # 18823,48 1st St,Grampian,(814) 791-9282,PA,16838,"48 1st St Grampian, PA 16838"
Dollar General # 18318,2337 Route 157,Fryburg,(570) 915-0522,PA,16326,"2337 Route 157 Fryburg, PA 16326"
Dollar General # 8289,2505 Mercer St,Stoneboro,(724) 376-2706,PA,16153,"2505 Mercer St Stoneboro, PA 16153"
Dollar General # 6445,2297 Curryville Rd,Martinsburg,(814) 793-2045,PA,16662,"2297 Curryville Rd Martinsburg, PA 16662"
Dollar General # 8394,843 Sharon New Castle Rd,Farrell,(724) 342-7351,PA,16121,"843 Sharon New Castle Rd Farrell, PA 16121"
Dollar General # 17914,606 S Temple Ln,Altoona,(814) 626-8515,PA,16602,"606 S Temple Ln Altoona, PA 16602"
Dollar General # 9356,1002 S Brady St,Du Bois,(814) 375-4470,PA,15801,"1002 S Brady St Du Bois, PA 15801"
Dollar General # 18430,1497 N Perry Hwy,Mercer,(724) 893-8200,PA,16137,"1497 N Perry Hwy Mercer, PA 16137"
Dollar General # 432,11 E Main Street,Everett,(814) 626-8610,PA,15537,"11 E Main Street Everett, PA 15537"
Dollar General # 11515,3958 Sr 257,Seneca,(814) 208-9630,PA,16346,"3958 Sr 257 Seneca, PA 16346"
Dollar General # 8316,871 E State St,Sharon,(724) 342-2234,PA,16146,"871 E State St Sharon, PA 16146"
Dollar General # 1655,697 Allegheny Blvd,Franklin,(814) 437-3237,PA,16323,"697 Allegheny Blvd Franklin, PA 16323"
Dollar General # 7641,1679 N Hermitage Rd,Hermitage,(724) 962-9770,PA,16148,"1679 N Hermitage Rd Hermitage, PA 16148"
Dollar General # 2110,90 Main St,Bellwood,(814) 742-9222,PA,16617,"90 Main St Bellwood, PA 16617"
Dollar General # 16801,32925 Pa Route 66,Leeper,(814) 344-4036,PA,16233,"32925 Pa Route 66 Leeper, PA 16233"
Dollar General # 10982,5750 Shaffer Rd,Du Bois,(814) 371-7920,PA,15801,"5750 Shaffer Rd Du Bois, PA 15801"
Dollar General # 4935,500 State St,Curwensville,(814) 236-3308,PA,16833,"500 State St Curwensville, PA 16833"
Dollar General # 8878,575 N Seneca St,Oil City,(814) 677-5990,PA,16301,"575 N Seneca St Oil City, PA 16301"
Dollar General # 4484,711 Main St,Saxton,(814) 635-4220,PA,16678,"711 Main St Saxton, PA 16678"
Dollar General # 19034,710 Arlington Dr,Greenville,(724) 638-8442,PA,16125,"710 Arlington Dr Greenville, PA 16125"
Dollar General # 3525,705 Mcateer Street,Houtzdale,(814) 378-7734,PA,16651,"705 Mcateer Street Houtzdale, PA 16651"
Dollar General # 435,5510 E Pleasnt Vlly Bld 1,Tyrone,(814) 684-2660,PA,16686,"5510 E Pleasnt Vlly Bld 1 Tyrone, PA 16686"
Dollar General # 1018,1249 Main St,Brockway,(814) 299-4298,PA,15824,"1249 Main St Brockway, PA 15824"
Dollar General # 8468,220 E 2nd St,Williamsburg,(814) 832-3777,PA,16693,"220 E 2nd St Williamsburg, PA 16693"
Dollar General # 19478,2525 Patchel Run Rd,Franklin,(814) 209-7100,PA,16323,"2525 Patchel Run Rd Franklin, PA 16323"
Dollar General # 18655,16267 Lincoln Hwy,Breezewood,(814) 735-4150,PA,15533,"16267 Lincoln Hwy Breezewood, PA 15533"
Dollar General # 14900,3305 Perry Highway,Hadley,(724) 373-2222,PA,16130,"3305 Perry Highway Hadley, PA 16130"
Dollar General # 12262,28 W Main St,Greenville,(724) 588-3746,PA,16125,"28 W Main St Greenville, PA 16125"
Dollar General # 15700,658 Elm St.,Tionesta,(814) 463-1600,PA,16353,"658 Elm St. Tionesta, PA 16353"
Dollar General # 7737,1800 Daisy St Ext Ste 390,Clearfield,(814) 762-8360,PA,16830,"1800 Daisy St Ext Ste 390 Clearfield, PA 16830"
Dollar General # 11278,41213 Route 66,Marienville,(814) 927-8516,PA,16239,"41213 Route 66 Marienville, PA 16239"
Dollar General # 13172,178 N Franklin St,Cochranton,(814) 425-2665,PA,16314,"178 N Franklin St Cochranton, PA 16314"
Dollar General # 13907,3925 Walton Street,Osceola Mills,(814) 339-6032,PA,16666,"3925 Walton Street Osceola Mills, PA 16666"
Dollar General # 18540,11915 Bennetts Valley Hwy,Penfield,(814) 503-0465,PA,15849,"11915 Bennetts Valley Hwy Penfield, PA 15849"
Dollar General # 10290,5713 William Penn Hwy,Alexandria,(814) 667-4575,PA,16611,"5713 William Penn Hwy Alexandria, PA 16611"
Dollar General # 16724,579 Woodland Bigler Hwy,Woodland,(814) 496-0900,PA,16881,"579 Woodland Bigler Hwy Woodland, PA 16881"
Dollar General # 10435,124 Walton St,Philipsburg,(814) 342-1896,PA,16866,"124 Walton St Philipsburg, PA 16866"
Dollar General # 14254,426 Merrick St.,Pleasantville,(814) 589-7141,PA,16341,"426 Merrick St. Pleasantville, PA 16341"
Dollar General # 12790,104 Liberty Street,Jamestown,(724) 932-3490,PA,16134,"104 Liberty Street Jamestown, PA 16134"
Dollar General # 1719,9048 William Penn Hwy #16,Huntingdon,(814) 641-7601,PA,16652,"9048 William Penn Hwy #16 Huntingdon, PA 16652"
Dollar General # 2413,210 S Perry St,Titusville,(814) 827-2181,PA,16354,"210 S Perry St Titusville, PA 16354"
Dollar General # 9925,912 Moore St,Huntingdon,(814) 506-0079,PA,16652,"912 Moore St Huntingdon, PA 16652"
Dollar General # 17679,7609 Waterfall Rd,Hustontown,(717) 325-4002,PA,17229,"7609 Waterfall Rd Hustontown, PA 17229"
Dollar General # 4430,249 Main St,Ridgway,(814) 772-2024,PA,15853,"249 Main St Ridgway, PA 15853"
Dollar General # 16972,283 Fairview Road,Kersey,(814) 344-4037,PA,15846,"283 Fairview Road Kersey, PA 15846"
Dollar General # 2446,11102 Perry Hwy,Meadville,(814) 333-3152,PA,16335,"11102 Perry Hwy Meadville, PA 16335"
Dollar General # 6560,12853 Conneaut Lake Rd,Conneaut Lake,(814) 382-1746,PA,16316,"12853 Conneaut Lake Rd Conneaut Lake, PA 16316"
Dollar General # 13230,33912 State Highway 408,Townville,(814) 675-0037,PA,16360,"33912 State Highway 408 Townville, PA 16360"
Dollar General # 15841,1900 Kylertown Drifting Hwy,Kylertown,(814) 281-3103,PA,16847,"1900 Kylertown Drifting Hwy Kylertown, PA 16847"
Dollar General # 4964,900 Water St,Meadville,(814) 337-6873,PA,16335,"900 Water St Meadville, PA 16335"
Dollar General # 620,260 Lincoln Way W,Mc Connellsburg,(717) 485-5210,PA,17233,"260 Lincoln Way W Mc Connellsburg, PA 17233"
Dollar General # 16908,24095 State Highway 77,Meadville,(814) 350-7114,PA,16335,"24095 State Highway 77 Meadville, PA 16335"
Dollar General # 19674,12543 Reed Ave,Conneaut Lake,(814) 382-1534,PA,16316,"12543 Reed Ave Conneaut Lake, PA 16316"
Dollar General # 189,18829 Sandy Ridge Sta,Orbisonia,(814) 447-3747,PA,17243,"18829 Sandy Ridge Sta Orbisonia, PA 17243"
Dollar General # 11928,822 S Saint Marys St,Saint Marys,(814) 834-2096,PA,15857,"822 S Saint Marys St Saint Marys, PA 15857"
Dollar General # 16021,125 E Shirley St.,Mount Union,(814) 514-4445,PA,17066,"125 E Shirley St. Mount Union, PA 17066"
Dollar General # 12873,1801 State Hwy 285,Espyville,(724) 927-6661,PA,16424,"1801 State Hwy 285 Espyville, PA 16424"
Dollar General # 9470,6164 Us Highway 6,Linesville,(814) 683-5819,PA,16424,"6164 Us Highway 6 Linesville, PA 16424"
Dollar General # 12882,533 Main St,Saegertown,(814) 350-7157,PA,16433,"533 Main St Saegertown, PA 16433"
Dollar General # 12438,134 Path Valley Rd,Fort Loudon,(717) 369-2709,PA,17224,"134 Path Valley Rd Fort Loudon, PA 17224"
Dollar General # 6289,742 Venango Ave,Cambridge Springs,(814) 398-9622,PA,16403,"742 Venango Ave Cambridge Springs, PA 16403"
Dollar General # 18479,24467 State Highway 8,Union City,(814) 438-4995,PA,16438,"24467 State Highway 8 Union City, PA 16438"
Dollar General # 13022,1901 Main St,Conneautville,(814) 350-7159,PA,16406,"1901 Main St Conneautville, PA 16406"
Dollar General # 10797,16329 Route 8,Union City,(814) 438-3247,PA,16438,"16329 Route 8 Union City, PA 16438"
Dollar General # 10312,220 W Plum St Ste 808,Edinboro,(814) 250-0712,PA,16412,"220 W Plum St Ste 808 Edinboro, PA 16412"
Dollar General # 4653,12674 Rt 19 S,Waterford,(814) 796-0062,PA,16441,"12674 Rt 19 S Waterford, PA 16441"
Dollar General # 2132,406 E Main St,Corry,(814) 664-4356,PA,16407,"406 E Main St Corry, PA 16407"
Dollar General # 14706,405 W. Columbus Ave.,Corry,(814) 462-1030,PA,16407,"405 W. Columbus Ave. Corry, PA 16407"
Dollar General # 8482,73 Railroad St,Youngsville,(814) 802-1610,PA,16371,"73 Railroad St Youngsville, PA 16371"
Dollar General # 1495,10541 Route 6n,Albion,(814) 756-3812,PA,16401,"10541 Route 6n Albion, PA 16401"
Dollar General # 12982,245 Crary St,Sheffield,(814) 968-4405,PA,16347,"245 Crary St Sheffield, PA 16347"
Dollar General # 16134,15455 Route 6,Clarendon,(814) 230-3037,PA,16313,"15455 Route 6 Clarendon, PA 16313"
Dollar General # 2299,40 Market St,Warren,(814) 726-3359,PA,16365,"40 Market St Warren, PA 16365"
Dollar General # 14462,13970 State Route 8,Wattsburg,(814) 240-2544,PA,16442,"13970 State Route 8 Wattsburg, PA 16442"
Dollar General # 13937,5212 West Road,Mc Kean,(814) 476-6001,PA,16426,"5212 West Road Mc Kean, PA 16426"
Dollar General # 18426,13777 Ridge Rd,West Springfield,(814) 859-9012,PA,16443,"13777 Ridge Rd West Springfield, PA 16443"
Dollar General # 2191,397 N Fraley St,Kane,(814) 837-8841,PA,16735,"397 N Fraley St Kane, PA 16735"
Dollar General # 9655,605 Main St E,Girard,(814) 774-0275,PA,16417,"605 Main St E Girard, PA 16417"
Dollar General # 15172,12683 Jackson Run Rd,Sugar Grove,(814) 489-2099,PA,16350,"12683 Jackson Run Rd Sugar Grove, PA 16350"
Dollar General # 15315,7538 West Ridge Rd (Us 20),Fairview,(814) 240-2521,PA,16415,"7538 West Ridge Rd (Us 20) Fairview, PA 16415"
Dollar General # 16852,8214 Perry Hwy,Erie,(814) 240-4391,PA,16509,"8214 Perry Hwy Erie, PA 16509"
Dollar General # 16722,1462 Lake Street,Lake City,(814) 806-1504,PA,16423,"1462 Lake Street Lake City, PA 16423"
Dollar General # 18051,6700 Market St,Russell,(814) 757-6321,PA,16345,"6700 Market St Russell, PA 16345"
Dollar General # 7705,5051 Peach St,Erie,(814) 860-8255,PA,16509,"5051 Peach St Erie, PA 16509"
Dollar General # 9037,1501 W 38th St,Erie,(814) 866-7564,PA,16508,"1501 W 38th St Erie, PA 16508"
Dollar General # 7910,2603 W 26th St,Erie,(814) 838-1550,PA,16506,"2603 W 26th St Erie, PA 16506"
Dollar General # 18488,4972 Wattsburg Rd,Erie,(814) 636-6560,PA,16504,"4972 Wattsburg Rd Erie, PA 16504"
Dollar General # 9327,3742 W 12th St,Erie,(814) 838-4097,PA,16505,"3742 W 12th St Erie, PA 16505"
Dollar General # 4965,2315 W 12th St,Erie,(814) 461-8334,PA,16505,"2315 W 12th St Erie, PA 16505"
Dollar General # 7600,3785 Zimmerman Rd,Erie,(814) 825-8321,PA,16510,"3785 Zimmerman Rd Erie, PA 16510"
Dollar General # 15290,404 East 26th St.,Erie,(814) 273-2081,PA,16503,"404 East 26th St. Erie, PA 16503"
Dollar General # 270,1700 Peach St,Erie,(814) 459-0150,PA,16501,"1700 Peach St Erie, PA 16501"
Dollar General # 7151,824 State St,Erie,(814) 454-1786,PA,16501,"824 State St Erie, PA 16501"
Dollar General # 18692,8990 Route 6,Kane,(814) 975-2065,PA,16735,"8990 Route 6 Kane, PA 16735"
Dollar General # 1335,714 East Ave,Erie,(814) 454-8566,PA,16503,"714 East Ave Erie, PA 16503"
Dollar General # 4826,4669 Buffalo Rd,Erie,(814) 899-9656,PA,16510,"4669 Buffalo Rd Erie, PA 16510"
Dollar General # 14210,4682 E Lake Rd,Erie,(814) 480-0538,PA,16511,"4682 E Lake Rd Erie, PA 16511"
Dollar General # 7108,10670 W Main Rd,North East,(814) 725-1751,PA,16428,"10670 W Main Rd North East, PA 16428"
Dollar General # 18148,980 South Ave,Bradford,(814) 817-3465,PA,16701,"980 South Ave Bradford, PA 16701"
Dollar General # 4308,114 Boylston St,Bradford,(814) 368-7020,PA,16701,"114 Boylston St Bradford, PA 16701"
Dollar General # 8455,86 S Marvin St,Smethport,(814) 887-5778,PA,16749,"86 S Marvin St Smethport, PA 16749"
Dollar General # 504,209 Sizerville Rd,Emporium,(814) 486-0324,PA,15834,"209 Sizerville Rd Emporium, PA 15834"
Dollar General # 2993,1034 E Main St,Bradford,(814) 363-3552,PA,16701,"1034 E Main St Bradford, PA 16701"
Dollar General # 5820,644 E Sycamore Rd,Snow Shoe,(814) 387-3080,PA,16874,"644 E Sycamore Rd Snow Shoe, PA 16874"
Dollar General # 6323,517 Dell St,Bellefonte,(814) 355-7196,PA,16823,"517 Dell St Bellefonte, PA 16823"
Dollar General # 2263,141 S Spring St,Bellefonte,(814) 355-8530,PA,16823,"141 S Spring St Bellefonte, PA 16823"
Dollar General # 16173,206 Cobblestone Road,Bellefonte,(814) 753-4410,PA,16823,"206 Cobblestone Road Bellefonte, PA 16823"
Dollar General # 10082,421 S Pennsylvania Ave,Centre Hall,(814) 364-1754,PA,16828,"421 S Pennsylvania Ave Centre Hall, PA 16828"
Dollar General # 11234,13635 Renovo Rd,Renovo,(570) 923-2182,PA,17764,"13635 Renovo Rd Renovo, PA 17764"
Dollar General # 9249,4514 E Main St,Belleville,(717) 935-2868,PA,17004,"4514 E Main St Belleville, PA 17004"
Dollar General # 14818,455 Eagle Valley Rd,Beech Creek,(570) 263-5542,PA,16822,"455 Eagle Valley Rd Beech Creek, PA 16822"
Dollar General # 15767,22 South River Road,Mc Veytown,(717) 899-0001,PA,17051,"22 South River Road Mc Veytown, PA 17051"
Dollar General # 9586,15 Commerce Dr Ste A,Milroy,(717) 363-8278,PA,17063,"15 Commerce Dr Ste A Milroy, PA 17063"
Dollar General # 18186,20 Caplan Way,Mill Hall,(570) 726-0330,PA,17751,"20 Caplan Way Mill Hall, PA 17751"
Dollar General # 8526,400 N Logan Blvd,Burnham,(717) 248-8584,PA,17009,"400 N Logan Blvd Burnham, PA 17009"
Dollar General # 673,202 S Dorcas St,Lewistown,(717) 242-1360,PA,17044,"202 S Dorcas St Lewistown, PA 17044"
Dollar General # 7767,5 Millbrook Plz,Mill Hall,(570) 748-4459,PA,17751,"5 Millbrook Plz Mill Hall, PA 17751"
Dollar General # 3320,16 E Main St,Lock Haven,(570) 748-3533,PA,17745,"16 E Main St Lock Haven, PA 17745"
Dollar General # 10716,502 N Main St,Port Allegany,(814) 642-7618,PA,16743,"502 N Main St Port Allegany, PA 16743"
Dollar General # 7921,102 West Chestnut Street,Coudersport,(814) 274-0343,PA,16915,"102 West Chestnut Street Coudersport, PA 16915"
Dollar General # 16845,514 E. Second St,Coudersport,(814) 320-3500,PA,16915,"514 E. Second St Coudersport, PA 16915"
Dollar General # 16223,53 Carl W. Kephart Blvd.,Jersey Shore,(570) 858-0200,PA,17740,"53 Carl W. Kephart Blvd. Jersey Shore, PA 17740"
Dollar General # 11657,24519 Sr-35 North,Mifflintown,(717) 436-8504,PA,17059,"24519 Sr-35 North Mifflintown, PA 17059"
Dollar General # 15200,27366 Route 75,Mifflintown,(717) 436-2706,PA,17059,"27366 Route 75 Mifflintown, PA 17059"
Dollar General # 13544,16300 Path Valley Rd.,Spring Run,(717) 349-2102,PA,17262,"16300 Path Valley Rd. Spring Run, PA 17262"
Dollar General # 14894,15 South Main St,Eldred,(814) 225-1000,PA,16731,"15 South Main St Eldred, PA 16731"
Dollar General # 17159,30609 Rt 35 North,Mcalisterville,(717) 463-1117,PA,17049,"30609 Rt 35 North Mcalisterville, PA 17049"
Dollar General # 6461,336 Allegheny St,Jersey Shore,(570) 865-1360,PA,17740,"336 Allegheny St Jersey Shore, PA 17740"
Dollar General # 6852,19655 Route 522,Beaver Springs,(570) 658-3196,PA,17812,"19655 Route 522 Beaver Springs, PA 17812"
Dollar General # 8040,8 Us Highway 6 W,Galeton,(814) 435-2152,PA,16922,"8 Us Highway 6 W Galeton, PA 16922"
Dollar General # 7155,215 S Stevens St,Shinglehouse,(814) 697-6400,PA,16748,"215 S Stevens St Shinglehouse, PA 16748"
Dollar General # 15952,23 Wert Dr.,Thompsontown,(717) 282-1535,PA,17094,"23 Wert Dr. Thompsontown, PA 17094"
Dollar General # 19751,103 Main St,Hartleton,(570) 922-0185,PA,17829,"103 Main St Hartleton, PA 17829"
Dollar General # 19488,13750 Cumberland Hwy,Orrstown,(717) 966-1215,PA,17244,"13750 Cumberland Hwy Orrstown, PA 17244"
Dollar General # 15642,2046 Landisburg Road,Landisburg,(717) 722-0222,PA,17040,"2046 Landisburg Road Landisburg, PA 17040"
Dollar General # 19468,320 North St,Ulysses,(814) 848-9874,PA,16948,"320 North St Ulysses, PA 16948"
Dollar General # 15935,14063 Route 35,Richfield,(717) 463-1300,PA,17086,"14063 Route 35 Richfield, PA 17086"
Dollar General # 16440,540 Shermans Valley Rd,New Bloomfield,(717) 594-2025,PA,17068,"540 Shermans Valley Rd New Bloomfield, PA 17068"
Dollar General # 9436,348 E Chestnut St,Mifflinburg,(570) 966-5896,PA,17844,"348 E Chestnut St Mifflinburg, PA 17844"
Dollar General # 8346,8884 Route 522,Middleburg,(570) 658-9265,PA,17842,"8884 Route 522 Middleburg, PA 17842"
Dollar General # 8418,1 Mill Rd,Newville,(717) 966-1198,PA,17241,"1 Mill Rd Newville, PA 17241"
Dollar General # 8897,205 Fickes Ln,Newport,(717) 567-7067,PA,17074,"205 Fickes Ln Newport, PA 17074"
Dollar General # 17327,1084 Orrstown Rd,Shippensburg,(717) 496-0333,PA,17257,"1084 Orrstown Rd Shippensburg, PA 17257"
Dollar General # 15070,50 Caplan Way,Saint Thomas,(717) 977-3635,PA,17252,"50 Caplan Way Saint Thomas, PA 17252"
Dollar General # 8716,2062 Lycoming Creek Rd Ste 2,Williamsport,(570) 323-3045,PA,17701,"2062 Lycoming Creek Rd Ste 2 Williamsport, PA 17701"
Dollar General # 15976,7769 State Route 304,Mifflinburg,(570) 428-9560,PA,17844,"7769 State Route 304 Mifflinburg, PA 17844"
Dollar General # 149,486 E King St,Shippensburg,(717) 977-3950,PA,17257,"486 E King St Shippensburg, PA 17257"
Dollar General # 4986,4052 Philadelphia Ave,Chambersburg,(717) 263-4762,PA,17201,"4052 Philadelphia Ave Chambersburg, PA 17201"
Dollar General # 316,944 Lincoln Way W,Chambersburg,(717) 977-3060,PA,17202,"944 Lincoln Way W Chambersburg, PA 17202"
Dollar General # 8361,11900 Buchanan Trl W,Mercersburg,(717) 328-5087,PA,17236,"11900 Buchanan Trl W Mercersburg, PA 17236"
Dollar General # 3578,514 W Southern Ave # 516,Williamsport,(570) 321-8210,PA,17702,"514 W Southern Ave # 516 Williamsport, PA 17702"
Dollar General # 17015,100 East Main St,Carlisle,(717) 462-7327,PA,17015,"100 East Main St Carlisle, PA 17015"
Dollar General # 11381,1617 Orchard Dr,Chambersburg,(717) 264-1854,PA,17201,"1617 Orchard Dr Chambersburg, PA 17201"
Dollar General # 16879,3105 Black Gap Road,Chambersburg,(717) 977-3001,PA,17202,"3105 Black Gap Road Chambersburg, PA 17202"
Dollar General # 8311,5001 Spring Road,Shermans Dale,(717) 594-0260,PA,17090,"5001 Spring Road Shermans Dale, PA 17090"
Dollar General # 19528,346 E Main St,Westfield,(814) 718-0100,PA,16950,"346 E Main St Westfield, PA 16950"
Dollar General # 17028,2891 Spring Rd,Carlisle,(717) 254-4842,PA,17013,"2891 Spring Rd Carlisle, PA 17013"
Dollar General # 8591,11631 Route 6,Wellsboro,(570) 723-4962,PA,16901,"11631 Route 6 Wellsboro, PA 16901"
Dollar General # 17844,16786 Us 15,Allenwood,(570) 838-5050,PA,17810,"16786 Us 15 Allenwood, PA 17810"
Dollar General # 19690,325 New Bloomfield Rd,Duncannon,(717) 834-0160,PA,17020,"325 New Bloomfield Rd Duncannon, PA 17020"
Dollar General # 1417,731 N Loyalsock Ave,Montoursville,(570) 368-4765,PA,17754,"731 N Loyalsock Ave Montoursville, PA 17754"
Dollar General # 16517,945 Rte 522,Selinsgrove,(570) 884-8210,PA,17870,"945 Rte 522 Selinsgrove, PA 17870"
Dollar General # 13425,1075 Harrisburg Pk,Carlisle,(717) 254-4859,PA,17013,"1075 Harrisburg Pk Carlisle, PA 17013"
Dollar General # 18185,980 Old Route 15,New Columbia,(570) 428-9704,PA,17856,"980 Old Route 15 New Columbia, PA 17856"
Dollar General # 3455,5180 State Route 405,Milton,(570) 989-0405,PA,17847,"5180 State Route 405 Milton, PA 17847"
Dollar General # 19800,499 Old Route 15,Port Trevorton,(570) 372-2440,PA,17864,"499 Old Route 15 Port Trevorton, PA 17864"
Dollar General # 6978,25 E 4th St,Watsontown,(570) 538-4377,PA,17777,"25 E 4th St Watsontown, PA 17777"
Dollar General # 14961,2006 State Route 54,Montgomery,(570) 547-6107,PA,17752,"2006 State Route 54 Montgomery, PA 17752"
Dollar General # 12688,6139 Lincoln Way East,Fayetteville,(717) 977-5203,PA,17222,"6139 Lincoln Way East Fayetteville, PA 17222"
Dollar General # 8599,1591 State Route 209,Millersburg,(717) 952-2011,PA,17061,"1591 State Route 209 Millersburg, PA 17061"
Dollar General # 4967,514 N Antrim Way,Greencastle,(717) 593-0884,PA,17225,"514 N Antrim Way Greencastle, PA 17225"
Dollar General # 18191,11171 Route 287,Middlebury Center,(570) 376-3389,PA,16935,"11171 Route 287 Middlebury Center, PA 16935"
Dollar General # 3481,2682 N Susquehanna Trl,Shamokin Dam,(570) 743-3042,PA,17876,"2682 N Susquehanna Trl Shamokin Dam, PA 17876"
Dollar General # 8813,406 N Baltimore Ave,Mount Holly Springs,(717) 323-2150,PA,17065,"406 N Baltimore Ave Mount Holly Springs, PA 17065"
Dollar General # 8914,3869 Peters Mountain Rd,Halifax,(717) 896-8410,PA,17032,"3869 Peters Mountain Rd Halifax, PA 17032"
Dollar General # 6315,1548 State Rd,Duncannon,(717) 957-2737,PA,17020,"1548 State Rd Duncannon, PA 17020"
Dollar General # 967,408 Market St,Sunbury,(570) 286-7030,PA,17801,"408 Market St Sunbury, PA 17801"
Dollar General # 9643,1a Riverside Plz,Blossburg,(570) 638-0386,PA,16912,"1a Riverside Plz Blossburg, PA 16912"
Dollar General # 14592,7129 Anthony Hwy.,Waynesboro,(717) 387-7000,PA,17268,"7129 Anthony Hwy. Waynesboro, PA 17268"
Dollar General # 6569,325 Point Township Dr,Northumberland,(570) 473-7239,PA,17857,"325 Point Township Dr Northumberland, PA 17857"
Dollar General # 17358,881 Peters Mountain Rd,Dauphin,(717) 559-2830,PA,17018,"881 Peters Mountain Rd Dauphin, PA 17018"
Dollar General # 16721,14415 Molly Pitcher Hwy,Greencastle,(717) 660-0661,PA,17225,"14415 Molly Pitcher Hwy Greencastle, PA 17225"
Dollar General # 14923,4935 State Route 54,Turbotville,(570) 649-5132,PA,17772,"4935 State Route 54 Turbotville, PA 17772"
Dollar General # 9598,9 N Washington St Ste 4,Muncy,(570) 546-0721,PA,17756,"9 N Washington St Ste 4 Muncy, PA 17756"
Dollar General # 17156,231 E Market St,Berrysburg,(717) 827-7110,PA,17005,"231 E Market St Berrysburg, PA 17005"
Dollar General # 18946,12060 Skyhawk Dr,Waynesboro,(240) 617-0266,PA,17268,"12060 Skyhawk Dr Waynesboro, PA 17268"
Dollar General # 4632,600c State Rd,Marysville,(717) 957-4920,PA,17053,"600c State Rd Marysville, PA 17053"
Dollar General # 16693,1453 Carlisle Rd,Aspers,(717) 778-3100,PA,17304,"1453 Carlisle Rd Aspers, PA 17304"
Dollar General # 2911,1809 Rte 405 East,Muncy,(570) 546-5853,PA,17756,"1809 Rte 405 East Muncy, PA 17756"
Dollar General # 10839,51 W Main St # 53,Waynesboro,(717) 788-3005,PA,17268,"51 W Main St # 53 Waynesboro, PA 17268"
Dollar General # 17192,3612 Chambersburg Rd,Biglerville,(717) 778-3500,PA,17307,"3612 Chambersburg Rd Biglerville, PA 17307"
Dollar General # 1449,5034 Hann Way,Mechanicsburg,(717) 697-3828,PA,17050,"5034 Hann Way Mechanicsburg, PA 17050"
Dollar General # 1412,415 Main St,Elkland,(814) 258-7177,PA,16920,"415 Main St Elkland, PA 16920"
Dollar General # 3816,195 N Main St,Mansfield,(570) 662-3046,PA,16933,"195 N Main St Mansfield, PA 16933"
Dollar General # 17875,2443 State Route 61,Sunbury,(570) 415-0480,PA,17801,"2443 State Route 61 Sunbury, PA 17801"
Dollar General # 19269,2941 N 7th St,Harrisburg,(717) 461-8350,PA,17110,"2941 N 7th St Harrisburg, PA 17110"
Dollar General # 11255,2023a Linglestown Rd,Harrisburg,(717) 260-3870,PA,17110,"2023a Linglestown Rd Harrisburg, PA 17110"
Dollar General # 13128,120 N Baltimore St,Dillsburg,(717) 432-9862,PA,17019,"120 N Baltimore St Dillsburg, PA 17019"
Dollar General # 231,11111 Buchanan Trl E,Waynesboro,(717) 749-5977,PA,17268,"11111 Buchanan Trl E Waynesboro, PA 17268"
Dollar General # 14335,840 Market Street,Lemoyne,(717) 438-4001,PA,17043,"840 Market Street Lemoyne, PA 17043"
Dollar General # 60,252 Mill St,Danville,(570) 275-6747,PA,17821,"252 Mill St Danville, PA 17821"
Dollar General # 10003,853 Trevorton Rd,Shamokin,(570) 486-4883,PA,17872,"853 Trevorton Rd Shamokin, PA 17872"
Dollar General # 8723,174 S Market St,Elysburg,(570) 221-4236,PA,17824,"174 S Market St Elysburg, PA 17824"
Dollar General # 398,30 E Independence St,Shamokin,(570) 486-5308,PA,17872,"30 E Independence St Shamokin, PA 17872"
Dollar General # 13046,9565 Us 209,Williamstown,(717) 647-7851,PA,17098,"9565 Us 209 Williamstown, PA 17098"
Dollar General # 6028,600 N Mountain Rd Ste C,Linglestown,(717) 743-2834,PA,17112,"600 N Mountain Rd Ste C Linglestown, PA 17112"
Dollar General # 7373,1104 Carlisle Rd,Camp Hill,(717) 761-3048,PA,17011,"1104 Carlisle Rd Camp Hill, PA 17011"
Dollar General # 8375,61 Anthra Road,Coal Township,(570) 648-9979,PA,17866,"61 Anthra Road Coal Township, PA 17866"
Dollar General # 19270,3810 Union Deposit Rd,Harrisburg,(717) 461-3820,PA,17109,"3810 Union Deposit Rd Harrisburg, PA 17109"
Dollar General # 7481,509 S 29th St,Harrisburg,(717) 260-3923,PA,17104,"509 S 29th St Harrisburg, PA 17104"
Dollar General # 7322,2918 State Route 42,Millville,(272) 203-0185,PA,17846,"2918 State Route 42 Millville, PA 17846"
Dollar General # 18245,1204 W Main St,Valley View,(814) 359-7265,PA,17983,"1204 W Main St Valley View, PA 17983"
Dollar General # 16648,99 Lewisberry Rd,Fairview Township,(717) 773-4709,PA,17070,"99 Lewisberry Rd Fairview Township, PA 17070"
Dollar General # 14197,709 Mill Street,Catawissa,(570) 719-2001,PA,17820,"709 Mill Street Catawissa, PA 17820"
Dollar General # 3797,881 B Eisenhower Blvd,Harrisburg,(717) 939-2812,PA,17111,"881 B Eisenhower Blvd Harrisburg, PA 17111"
Dollar General # 4354,6 E Main St,Bloomsburg,(570) 389-0980,PA,17815,"6 E Main St Bloomsburg, PA 17815"
Dollar General # 6176,1000 Market St,Bloomsburg,(570) 387-8178,PA,17815,"1000 Market St Bloomsburg, PA 17815"
Dollar General # 9264,1297 Springbrook Dr,Canton,(412) 851-3653,PA,17724,"1297 Springbrook Dr Canton, PA 17724"
Dollar General # 14049,427 Second Street,Highspire,(814) 320-0667,PA,17034,"427 Second Street Highspire, PA 17034"
Dollar General # 2755,240 S Market St,Mount Carmel,(570) 554-0810,PA,17851,"240 S Market St Mount Carmel, PA 17851"
Dollar General # 14662,55 York Street (Rte 74),Wellsville,(717) 432-3127,PA,17365,"55 York Street (Rte 74) Wellsville, PA 17365"
Dollar General # 8979,149 Mill St,Benton,(570) 925-0140,PA,17814,"149 Mill St Benton, PA 17814"
Dollar General # 13229,507 Jonestown Rd,Jonestown,(814) 619-4803,PA,17038,"507 Jonestown Rd Jonestown, PA 17038"
Dollar General # 11598,409 Suedberg Rd,Pine Grove,(570) 345-2490,PA,17963,"409 Suedberg Rd Pine Grove, PA 17963"
Dollar General # 809,62 N Londonderry Sq,Palmyra,(717) 838-5547,PA,17078,"62 N Londonderry Sq Palmyra, PA 17078"
Dollar General # 9283,15 S Railroad St,Ashland,(570) 875-0170,PA,17921,"15 S Railroad St Ashland, PA 17921"
Dollar General # 14914,405 W. Third Street,Nescopeck,(570) 218-8670,PA,18635,"405 W. Third Street Nescopeck, PA 18635"
Dollar General # 18918,5736 Carlisle Pike,New Oxford,(717) 640-5042,PA,17350,"5736 Carlisle Pike New Oxford, PA 17350"
Dollar General # 19691,680 York Haven Rd,York Haven,(717) 266-2170,PA,17370,"680 York Haven Rd York Haven, PA 17370"
Dollar General # 16094,1710 State Route 72 North,Lebanon,(717) 639-2240,PA,17046,"1710 State Route 72 North Lebanon, PA 17046"
Dollar General # 14651,4911 Carlisle Rd,Dover,(717) 467-3059,PA,17315,"4911 Carlisle Rd Dover, PA 17315"
Dollar General # 3152,2005 W Front St,Berwick,(570) 752-5444,PA,18603,"2005 W Front St Berwick, PA 18603"
Dollar General # 7869,101 Elmira St,Troy,(570) 297-1343,PA,16947,"101 Elmira St Troy, PA 16947"
Dollar General # 15215,1621 Route 194,East Berlin,(717) 467-4782,PA,17316,"1621 Route 194 East Berlin, PA 17316"
Dollar General # 551,2 Springs Ave,Gettysburg,(717) 334-4518,PA,17325,"2 Springs Ave Gettysburg, PA 17325"
Dollar General # 6359,18658 Route 287,Tioga,(570) 827-3078,PA,16946,"18658 Route 287 Tioga, PA 16946"
Dollar General # 18203,8 State Route 118,Benton,(570) 864-7400,PA,17814,"8 State Route 118 Benton, PA 17814"
Dollar General # 19501,950 Church St,Lebanon,(717) 279-5195,PA,17046,"950 Church St Lebanon, PA 17046"
Dollar General # 13288,6 Sunbury St,Minersville,(570) 391-0014,PA,17954,"6 Sunbury St Minersville, PA 17954"
Dollar General # 7506,4910 Fairfield Rd Ste G,Fairfield,(717) 642-3762,PA,17320,"4910 Fairfield Rd Ste G Fairfield, PA 17320"
Dollar General # 9076,125 E Front St,Berwick,(570) 752-1399,PA,18603,"125 E Front St Berwick, PA 18603"
Dollar General # 137,4300 N George Street Ext,Manchester,(717) 266-3778,PA,17345,"4300 N George Street Ext Manchester, PA 17345"
Dollar General # 7329,3170 Carlisle Pike,New Oxford,(717) 624-8979,PA,17350,"3170 Carlisle Pike New Oxford, PA 17350"
Dollar General # 2023,1741 Quentin Rd,Lebanon,(717) 272-2364,PA,17042,"1741 Quentin Rd Lebanon, PA 17042"
Dollar General # 7985,1627 S Market St,Elizabethtown,(717) 361-8879,PA,17022,"1627 S Market St Elizabethtown, PA 17022"
Dollar General # 1625,12 Gold Star Plz,Shenandoah,(570) 462-3226,PA,17976,"12 Gold Star Plz Shenandoah, PA 17976"
Dollar General # 16358,15038 Buchanan Trail East,Blue Ridge Summit,(717) 296-1575,PA,17214,"15038 Buchanan Trail East Blue Ridge Summit, PA 17214"
Dollar General # 19391,55 E Hanover St,Gettysburg,(717) 797-0085,PA,17325,"55 E Hanover St Gettysburg, PA 17325"
Dollar General # 2490,1056 Rt 220 Ste 1,Dushore,(570) 928-7234,PA,18614,"1056 Rt 220 Ste 1 Dushore, PA 18614"
Dollar General # 15282,8265 Lancaster Ave.-Sr 501,Bethel,(717) 628-3378,PA,19507,"8265 Lancaster Ave.-Sr 501 Bethel, PA 19507"
Dollar General # 9962,200 E Arch St,Pottsville,(570) 628-2426,PA,17901,"200 E Arch St Pottsville, PA 17901"
Dollar General # 15364,4750 W. Market St.,York,(717) 814-5860,PA,17408,"4750 W. Market St. York, PA 17408"
Dollar General # 6198,2156 White Street,York,(717) 848-1890,PA,17402,"2156 White Street York, PA 17402"
Dollar General # 9060,1500 N George St # 10,York,(717) 854-3181,PA,17404,"1500 N George St # 10 York, PA 17404"
Dollar General # 15666,594 Route 183 S.,Schuylkill Haven,(570) 391-4161,PA,17972,"594 Route 183 S. Schuylkill Haven, PA 17972"
Dollar General # 12588,460 W Lincoln Ave,Myerstown,(717) 866-2090,PA,17067,"460 W Lincoln Ave Myerstown, PA 17067"
Dollar General # 8893,1240 W Market St,York,(717) 356-0470,PA,17404,"1240 W Market St York, PA 17404"
Dollar General # 2940,701 W Centre St,Mahanoy City,(570) 773-1300,PA,17948,"701 W Centre St Mahanoy City, PA 17948"
Dollar General # 4624,6116 Cressona Mall,Pottsville,(570) 691-0178,PA,17901,"6116 Cressona Mall Pottsville, PA 17901"
Dollar General # 9513,2100 Thistle Hill Dr,Spring Grove,(717) 225-5160,PA,17362,"2100 Thistle Hill Dr Spring Grove, PA 17362"
Dollar General # 2203,553 W Main St,Mount Joy,(717) 653-1174,PA,17552,"553 W Main St Mount Joy, PA 17552"
Dollar General # 7073,1000 Carlisle St,Hanover,(570) 733-3710,PA,17331,"1000 Carlisle St Hanover, PA 17331"
Dollar General # 9779,3746 Centennial Rd,Hanover,(717) 637-4503,PA,17331,"3746 Centennial Rd Hanover, PA 17331"
Dollar General # 6059,2450 E Market St,York,(717) 755-0454,PA,17402,"2450 E Market St York, PA 17402"
Dollar General # 4976,1077 Edgar St,York,(717) 843-3029,PA,17403,"1077 Edgar St York, PA 17403"
Dollar General # 3823,5 Cinema Dr,York,(717) 757-1438,PA,17402,"5 Cinema Dr York, PA 17402"
Dollar General # 15521,955 Pennsylvania Ave,Monroeton,(570) 485-3072,PA,18832,"955 Pennsylvania Ave Monroeton, PA 18832"
Dollar General # 19606,33054 Route 14,Gillett,(570) 596-3144,PA,16925,"33054 Route 14 Gillett, PA 16925"
Dollar General # 15886,410 North Queen St,Littlestown,(717) 345-3753,PA,17340,"410 North Queen St Littlestown, PA 17340"
Dollar General # 4385,2138 S Queen St,York,(717) 819-9057,PA,17403,"2138 S Queen St York, PA 17403"
Dollar General # 16449,840 West Market St,Orwigsburg,(570) 691-0100,PA,17961,"840 West Market St Orwigsburg, PA 17961"
Dollar General # 3569,820 Baltimore St,Hanover,(717) 630-0146,PA,17331,"820 Baltimore St Hanover, PA 17331"
Dollar General # 2182,347 S Main St,Manheim,(717) 327-4735,PA,17545,"347 S Main St Manheim, PA 17545"
Dollar General # 18520,54 E Main St,Newmanstown,(484) 930-0203,PA,17073,"54 E Main St Newmanstown, PA 17073"
Dollar General # 17109,65 Baltimore St,Spring Grove,(717) 229-1019,PA,17362,"65 Baltimore St Spring Grove, PA 17362"
Dollar General # 19368,6 Hickory Dr Lot 1,Auburn,(570) 366-4655,PA,17922,"6 Hickory Dr Lot 1 Auburn, PA 17922"
Dollar General # 4316,960 Lancaster Ave,Columbia,(717) 684-8884,PA,17512,"960 Lancaster Ave Columbia, PA 17512"
Dollar General # 145,151 Golden Mile Rd,Towanda,(607) 414-3170,PA,18848,"151 Golden Mile Rd Towanda, PA 18848"
Dollar General # 19767,4 Roadside Dr,Shartlesville,(484) 662-3455,PA,19554,"4 Roadside Dr Shartlesville, PA 19554"
Dollar General # 2811,647 Lombard Rd,Red Lion,(717) 246-2840,PA,17356,"647 Lombard Rd Red Lion, PA 17356"
Dollar General # 15422,2417 State Route 118 Hwy,Lake Township,(570) 793-2176,PA,18656,"2417 State Route 118 Hwy Lake Township, PA 18656"
Dollar General # 16238,3510 Marietta Ave,Lancaster,(717) 716-2004,PA,17601,"3510 Marietta Ave Lancaster, PA 17601"
Dollar General # 6513,835 E Main St,Dallastown,(717) 378-4623,PA,17313,"835 E Main St Dallastown, PA 17313"
Dollar General # 14547,410 South Hancock St.,Mcadoo,(570) 225-9176,PA,18237,"410 South Hancock St. Mcadoo, PA 18237"
Dollar General # 10148,808 Mcnair St,Hazleton,(570) 455-0519,PA,18201,"808 Mcnair St Hazleton, PA 18201"
Dollar General # 19412,1005 Summer Valley Rd,New Ringgold,(717) 862-5979,PA,17960,"1005 Summer Valley Rd New Ringgold, PA 17960"
Dollar General # 9632,301 W Walnut St,Hazleton,(570) 454-7256,PA,18201,"301 W Walnut St Hazleton, PA 18201"
Dollar General # 19404,244 Hazle Twp Blvd,Hazleton,(570) 501-8831,PA,18202,"244 Hazle Twp Blvd Hazleton, PA 18202"
Dollar General # 10036,3515 Columbia Ave,Lancaster,(717) 327-4737,PA,17603,"3515 Columbia Ave Lancaster, PA 17603"
Dollar General # 19782,2589 Craley Rd,Wrightsville,(717) 244-2003,PA,17368,"2589 Craley Rd Wrightsville, PA 17368"
Dollar General # 329,Us Rt 6 W Farm Home Plz,Wyalusing,(570) 746-4003,PA,18853,"Us Rt 6 W Farm Home Plz Wyalusing, PA 18853"
Dollar General # 6583,220 E Diamond Ave,Hazleton,(570) 453-0411,PA,18201,"220 E Diamond Ave Hazleton, PA 18201"
Dollar General # 13403,226 E Penn Ave,Robesonia,(610) 898-3326,PA,19551,"226 E Penn Ave Robesonia, PA 19551"
Dollar General # 19599,29650 Route 220,Athens,(570) 888-2732,PA,18810,"29650 Route 220 Athens, PA 18810"
Dollar General # 15817,309 North Hunter Highway,Drums,(570) 359-4110,PA,18222,"309 North Hunter Highway Drums, PA 18222"
Dollar General # 3854,1213 E Broad St,Tamaqua,(570) 225-9640,PA,18252,"1213 E Broad St Tamaqua, PA 18252"
Dollar General # 18615,11951 Winterstown Rd,Red Lion,(717) 417-4245,PA,17356,"11951 Winterstown Rd Red Lion, PA 17356"
Dollar General # 597,1805 Columbia Ave,Lancaster,(717) 740-2655,PA,17603,"1805 Columbia Ave Lancaster, PA 17603"
Dollar General # 8000,2280 Sans Souci Pkwy #7,Wilkes Barre,(570) 735-3170,PA,18706,"2280 Sans Souci Pkwy #7 Wilkes Barre, PA 18706"
Dollar General # 7778,1625 Elmira St,Sayre,(570) 886-8075,PA,18840,"1625 Elmira St Sayre, PA 18840"
Dollar General # 10473,4076 Memorial Hwy,Dallas,(570) 285-4364,PA,18612,"4076 Memorial Hwy Dallas, PA 18612"
Dollar General # 497,700 S 4th St,Hamburg,(610) 562-3991,PA,19526,"700 S 4th St Hamburg, PA 19526"
Dollar General # 13688,560 S. 7th St,Akron,(717) 859-8037,PA,17501,"560 S. 7th St Akron, PA 17501"
Dollar General # 18108,28225 Route 187,Wysox,(570) 731-0618,PA,18854,"28225 Route 187 Wysox, PA 18854"
Dollar General # 16685,2520 Sr 29 S,Monroe Township,(570) 240-4106,PA,18657,"2520 Sr 29 S Monroe Township, PA 18657"
Dollar General # 15995,547 South Street,Freeland,(570) 526-1001,PA,18224,"547 South Street Freeland, PA 18224"
Dollar General # 14417,360 South Mountain Blvd.,Mountain Top,(570) 261-4146,PA,18707,"360 South Mountain Blvd. Mountain Top, PA 18707"
Dollar General # 8141,8277 Miller Park Dr,Shrewsbury,(717) 235-3363,PA,17361,"8277 Miller Park Dr Shrewsbury, PA 17361"
Dollar General # 4424,800 San Souci Parkway,Wilkes Barre,(570) 823-5958,PA,18702,"800 San Souci Parkway Wilkes Barre, PA 18702"
Dollar General # 9423,1900 Memorial Hwy Ste 10,Shavertown,(570) 675-0807,PA,18708,"1900 Memorial Hwy Ste 10 Shavertown, PA 18708"
Dollar General # 154,1649 Lincoln Hwy E,Lancaster,(717) 553-2130,PA,17602,"1649 Lincoln Hwy E Lancaster, PA 17602"
Dollar General # 13335,1835 N. Reading Rd,Stevens,(717) 335-2745,PA,17578,"1835 N. Reading Rd Stevens, PA 17578"
Dollar General # 12900,677 Kidder St,Wilkes Barre,(570) 822-4368,PA,18702,"677 Kidder St Wilkes Barre, PA 18702"
Dollar General # 11232,295 South Main Sreet,Wilkes Barre,(570) 820-7652,PA,18701,"295 South Main Sreet Wilkes Barre, PA 18701"
Dollar General # 16818,618 Blackman St. Ste 1,Wilkes Barre,(570) 846-2494,PA,18702,"618 Blackman St. Ste 1 Wilkes Barre, PA 18702"
Dollar General # 19268,274 W Side Mall,Edwardsville,(570) 285-4334,PA,18704,"274 W Side Mall Edwardsville, PA 18704"
Dollar General # 16039,748 Wyoming Ave (Pa 11),Kingston,(570) 285-8038,PA,18704,"748 Wyoming Ave (Pa 11) Kingston, PA 18704"
Dollar General # 7096,1950 Wyoming Ave,Exeter,(570) 362-6290,PA,18643,"1950 Wyoming Ave Exeter, PA 18643"
Dollar General # 9544,457 N Main St,Pittston,(570) 908-6480,PA,18640,"457 N Main St Pittston, PA 18640"
Dollar General # 9325,2 Lonesome Rd,Old Forge,(570) 589-7955,PA,18518,"2 Lonesome Rd Old Forge, PA 18518"
Dollar General # 1059,383 Meridian Ave,Scranton,(570) 209-5660,PA,18504,"383 Meridian Ave Scranton, PA 18504"
Dollar General # 9336,346 State Route 940,Blakeslee,(570) 646-7631,PA,18610,"346 State Route 940 Blakeslee, PA 18610"
Dollar General # 9235,1779 N Keyser Ave,Scranton,(570) 344-0920,PA,18509,"1779 N Keyser Ave Scranton, PA 18509"
Dollar General # 16162,298 State Route 435,Clifton Township,(570) 795-5132,PA,18424,"298 State Route 435 Clifton Township, PA 18424"
Dollar General # 12162,208 S Main St,Moscow,(570) 795-4380,PA,18444,"208 S Main St Moscow, PA 18444"
Dollar General # 12481,20 W Main St,Weatherly,(272) 225-0062,PA,18255,"20 W Main St Weatherly, PA 18255"
Dollar General # 13251,2592 State Route 903,Albrightsville,(570) 249-2000,PA,18210,"2592 State Route 903 Albrightsville, PA 18210"
Dollar General # 9380,1535 Main St,Peckville,(570) 489-0746,PA,18452,"1535 Main St Peckville, PA 18452"
Dollar General # 6489,420 W Tioga Plaza Ste 136,Tunkhannock,(570) 836-0757,PA,18657,"420 W Tioga Plaza Ste 136 Tunkhannock, PA 18657"
Dollar General # 16445,1195 Mt. Cobb Rd.,Jefferson Township,(570) 630-1810,PA,18436,"1195 Mt. Cobb Rd. Jefferson Township, PA 18436"
Dollar General # 20094,138 College Ave,Factoryville,(570) 209-5595,PA,18419,"138 College Ave Factoryville, PA 18419"
Dollar General # 15101,1424 State Route 903,Jim Thorpe,(570) 249-2035,PA,18229,"1424 State Route 903 Jim Thorpe, PA 18229"
Dollar General # 4023,860 Scranton Carbondale H,Eynon,(570) 521-2518,PA,18403,"860 Scranton Carbondale H Eynon, PA 18403"
Dollar General # 15066,2590 Route 940,Pocono Summit,(570) 580-3102,PA,18346,"2590 Route 940 Pocono Summit, PA 18346"
Dollar General # 16293,203 South Washington Avenue,Jermyn,(570) 291-5858,PA,18433,"203 South Washington Avenue Jermyn, PA 18433"
Dollar General # 1151,490 Hamlin Hwy,Lake Arial,(570) 689-7693,PA,18436,"490 Hamlin Hwy Lake Arial, PA 18436"
Dollar General # 10434,1125 E Catawissa St,Nesquehoning,(570) 669-9820,PA,18240,"1125 E Catawissa St Nesquehoning, PA 18240"
Dollar General # 18910,5 Aldovin Rd,Tunkhannock,(570) 836-2825,PA,18657,"5 Aldovin Rd Tunkhannock, PA 18657"
Dollar General # 7032,1249 Pocono Blvd,Mount Pocono,(570) 839-7094,PA,18344,"1249 Pocono Blvd Mount Pocono, PA 18344"
Dollar General # 11430,37 State Street,Nicholson,(570) 942-6271,PA,18446,"37 State Street Nicholson, PA 18446"
Dollar General # 13931,3229 Rte 115,Effort,(570) 664-7437,PA,18330,"3229 Rte 115 Effort, PA 18330"
Dollar General # 11592,1033 Main St,Newfoundland,(570) 676-4868,PA,18445,"1033 Main St Newfoundland, PA 18445"
Dollar General # 3933,481 North 1st St,Lehighton,(484) 629-6080,PA,18235,"481 North 1st St Lehighton, PA 18235"
Dollar General # 16301,1440 Lake Aerial Hwy,Lake Ariel,(570) 630-5252,PA,18436,"1440 Lake Aerial Hwy Lake Ariel, PA 18436"
Dollar General # 9234,1 Westside Dr,Carbondale,(570) 936-2100,PA,18407,"1 Westside Dr Carbondale, PA 18407"
Dollar General # 18504,6745 Interchange Rd,Lehighton,(484) 629-8085,PA,18235,"6745 Interchange Rd Lehighton, PA 18235"
Dollar General # 17049,1323 Route 507,Greentown,(570) 252-9110,PA,18426,"1323 Route 507 Greentown, PA 18426"
Dollar General # 17664,1418 Hamlin Hwy,Lake Ariel,(570) 630-1465,PA,18436,"1418 Hamlin Hwy Lake Ariel, PA 18436"
Dollar General # 15957,655 Interchange Rd.,Kresgeville,(570) 420-7466,PA,18333,"655 Interchange Rd. Kresgeville, PA 18333"
Dollar General # 7953,404 Main St,Simpson,(570) 282-6740,PA,18407,"404 Main St Simpson, PA 18407"
Dollar General # 17349,2245 Route 715,Stroudsburg,(570) 664-8416,PA,18360,"2245 Route 715 Stroudsburg, PA 18360"
Dollar General # 1445,1494 Route 209,Brodheadsville,(570) 992-1728,PA,18322,"1494 Route 209 Brodheadsville, PA 18322"
Dollar General # 8214,2942 Route 611,Tannersville,(570) 664-0175,PA,18372,"2942 Route 611 Tannersville, PA 18372"
Dollar General # 7526,670 Roosevelt Hwy,Waymart,(570) 616-0001,PA,18472,"670 Roosevelt Hwy Waymart, PA 18472"
Dollar General # 6543,117 Main St,Forest City,(570) 785-2647,PA,18421,"117 Main St Forest City, PA 18421"
Dollar General # 17638,745 Purdytown Tpke,Lakeville,(570) 390-8887,PA,18438,"745 Purdytown Tpke Lakeville, PA 18438"
Dollar General # 16946,1698 Rachel Rd,Stroudsburg,(570) 801-7038,PA,18360,"1698 Rachel Rd Stroudsburg, PA 18360"
Dollar General # 7024,440 Main St,Walnutport,(610) 767-7641,PA,18088,"440 Main St Walnutport, PA 18088"
Dollar General # 15067,936 Route 115,Saylorsburg,(570) 213-7687,PA,18353,"936 Route 115 Saylorsburg, PA 18353"
Dollar General # 17738,3308 Church St,Slatington,(484) 262-9930,PA,18080,"3308 Church St Slatington, PA 18080"
Dollar General # 8793,221 Skyline Dr Ste 206,East Stroudsburg,(570) 424-3206,PA,18301,"221 Skyline Dr Ste 206 East Stroudsburg, PA 18301"
Dollar General # 16158,24 Main Ave,Hawley,(570) 576-3017,PA,18428,"24 Main Ave Hawley, PA 18428"
Dollar General # 4843,1199 Texas Palmyra Hwy St,Honesdale,(570) 251-8482,PA,18431,"1199 Texas Palmyra Hwy St Honesdale, PA 18431"
Dollar General # 16927,2535 Milford Rd,East Stroudsburg,(570) 213-7584,PA,18301,"2535 Milford Rd East Stroudsburg, PA 18301"
Dollar General # 7666,5432 Oakwood Ln,Schnecksville,(610) 760-0435,PA,18078,"5432 Oakwood Ln Schnecksville, PA 18078"
Dollar General # 18102,1297 Bushkill Center Dr,Nazareth,(484) 292-4945,PA,18064,"1297 Bushkill Center Dr Nazareth, PA 18064"
Dollar General # 10084,469 S Main St,Montrose,(570) 737-4302,PA,18801,"469 S Main St Montrose, PA 18801"
Dollar General # 7820,432 Blue Valley Dr,Bangor,(610) 863-6333,PA,18013,"432 Blue Valley Dr Bangor, PA 18013"
Dollar General # 19889,2016 Main St,Northampton,(484) 272-2415,PA,18067,"2016 Main St Northampton, PA 18067"
Dollar General # 15636,1062 Beach Lake Hwy,Beach Lake,(570) 616-3002,PA,18405,"1062 Beach Lake Hwy Beach Lake, PA 18405"
Dollar General # 4671,859 Nazareth Pike,Nazareth,(610) 614-1291,PA,18064,"859 Nazareth Pike Nazareth, PA 18064"
Dollar General # 18204,1350 Main St,New Milford,(570) 465-2308,PA,18834,"1350 Main St New Milford, PA 18834"
Dollar General # 15146,2319 N. Delaware Dr.,Mount Bethel,(570) 234-3290,PA,18343,"2319 N. Delaware Dr. Mount Bethel, PA 18343"
Dollar General # 466,1866 Catasauqua Rd,Allentown,(610) 231-0436,PA,18109,"1866 Catasauqua Rd Allentown, PA 18109"
Dollar General # 14743,1741 West Tilgham St,Allentown,(484) 602-2705,PA,18104,"1741 West Tilgham St Allentown, PA 18104"
Dollar General # 3607,2106 Union Blvd,Allentown,(610) 435-9740,PA,18109,"2106 Union Blvd Allentown, PA 18109"
Dollar General # 4282,308 Town Center Blvd,Easton,(610) 258-7360,PA,18040,"308 Town Center Blvd Easton, PA 18040"
Dollar General # 1058,15260 Kutztown Rd,Kutztown,(610) 894-9640,PA,19530,"15260 Kutztown Rd Kutztown, PA 19530"
Dollar General # 12323,24045 Rt 11,Hallstead,(570) 879-5124,PA,18822,"24045 Rt 11 Hallstead, PA 18822"
Dollar General # 15589,1722 Rt 739,Delaware Township,(570) 832-2624,PA,18328,"1722 Rt 739 Delaware Township, PA 18328"
Dollar General # 19266,1604 S 4th St,Allentown,(484) 268-5782,PA,18103,"1604 S 4th St Allentown, PA 18103"
Dollar General # 18919,1529 Broadway,Fountain Hill,(484) 626-0726,PA,18015,"1529 Broadway Fountain Hill, PA 18015"
Dollar General # 9546,1720 Butler St,Easton,(610) 253-8780,PA,18042,"1720 Butler St Easton, PA 18042"
Dollar General # 15875,310 W Emaus Avenue,Allentown,(610) 628-2532,PA,18103,"310 W Emaus Avenue Allentown, PA 18103"
Dollar General # 18269,690 Us 6,Shohola,(570) 296-6452,PA,18458,"690 Us 6 Shohola, PA 18458"
Dollar General # 8583,1351 Main Street,Susquehanna,(570) 853-4482,PA,18847,"1351 Main Street Susquehanna, PA 18847"
Dollar General # 13905,2306 28th St. Sw,Allentown,(484) 619-2913,PA,18103,"2306 28th St. Sw Allentown, PA 18103"
Dollar General # 19523,26682 State Route 267,Friendsville,(607) 444-5090,PA,18818,"26682 State Route 267 Friendsville, PA 18818"
Dollar General # 10271,330 W Weiss St,Topton,(610) 682-0322,PA,19562,"330 W Weiss St Topton, PA 19562"
Dollar General # 8215,3 Main St,Hellertown,(484) 852-1075,PA,18055,"3 Main St Hellertown, PA 18055"
Dollar General # 15647,15 N Centre Ave (Pa 61),Leesport,(484) 866-9643,PA,19533,"15 N Centre Ave (Pa 61) Leesport, PA 19533"
Dollar General # 13791,825 Park Road,Blandon,(484) 575-1354,PA,19510,"825 Park Road Blandon, PA 19510"
Dollar General # 17272,556 Rt 6 And 209,Milford,(570) 409-7095,PA,18337,"556 Rt 6 And 209 Milford, PA 18337"
Dollar General # 7212,3215 N 5th Street Hwy,Reading,(610) 929-9365,PA,19605,"3215 N 5th Street Hwy Reading, PA 19605"
Dollar General # 11920,1920 Kutztown Rd,Reading,(610) 921-2465,PA,19604,"1920 Kutztown Rd Reading, PA 19604"
Dollar General # 14593,219 Buttonwood St.,Reading,(610) 816-0028,PA,19601,"219 Buttonwood St. Reading, PA 19601"
Dollar General # 4919,2980 Saint Lawrence Ave,Mount Penn,(610) 406-0625,PA,19606,"2980 Saint Lawrence Ave Mount Penn, PA 19606"
Dollar General # 13695,230 South Reading Ave,Boyertown,(484) 415-2160,PA,19512,"230 South Reading Ave Boyertown, PA 19512"
Dollar General # 15084,2471 Lancaster Pike,Shillington,(484) 772-2950,PA,19607,"2471 Lancaster Pike Shillington, PA 19607"
Dollar General # 15584,100 Chestnut St,Birdsboro,(484) 948-1625,PA,19508,"100 Chestnut St Birdsboro, PA 19508"
Dollar General # 18310,103 N Monocacy Creek Rd,Douglassville,(484) 236-4198,PA,19518,"103 N Monocacy Creek Rd Douglassville, PA 19518"
Dollar General # 1549,1300 N Charlotte St,Pottstown,(610) 323-9603,PA,19464,"1300 N Charlotte St Pottstown, PA 19464"
Dollar General # 232,161 N Main St,Dublin,(215) 249-9286,PA,18917,"161 N Main St Dublin, PA 18917"
Dollar General # 6892,1620 W High St,Stowe,(484) 925-0002,PA,19464,"1620 W High St Stowe, PA 19464"
Dollar General # 987,5847 Easton Rd,Plumsteadville,(215) 766-1466,PA,18949,"5847 Easton Rd Plumsteadville, PA 18949"
Dollar General # 12465,314 N Lewis Rd,Royersford,(610) 948-1242,PA,19468,"314 N Lewis Rd Royersford, PA 19468"
Dollar General # 3968,2846 Main St Ste 12,Morgantown,(484) 870-3398,PA,19543,"2846 Main St Ste 12 Morgantown, PA 19543"
Dollar General # 11003,2637 W Ridge Pike,Eagleville,(717) 279-5833,PA,19403,"2637 W Ridge Pike Eagleville, PA 19403"
Dollar General # 2409,419 W Main St,New Holland,(717) 355-2364,PA,17557,"419 W Main St New Holland, PA 17557"
Dollar General # 10481,35 W Main St,Leola,(717) 327-4460,PA,17540,"35 W Main St Leola, PA 17540"
Dollar General # 8436,3337 Lincoln Hwy E,Paradise,(717) 768-3355,PA,17562,"3337 Lincoln Hwy E Paradise, PA 17562"
Dollar General # 327,2725 E Lincoln Hwy,Coatesville,(610) 380-9654,PA,19320,"2725 E Lincoln Hwy Coatesville, PA 19320"
Dollar General # 11288,5373 Lincoln Hwy Ste 2,Gap,(717) 442-2334,PA,17527,"5373 Lincoln Hwy Ste 2 Gap, PA 17527"
Dollar General # 16068,1106 West Lincoln Hwy,Coatesville,(610) 400-3742,PA,19320,"1106 West Lincoln Hwy Coatesville, PA 19320"
Dollar General # 8403,120-194 North Pine Street,Langhorne,(267) 819-2065,PA,19047,"120-194 North Pine Street Langhorne, PA 19047"
Dollar General # 18313,11749 Bustleton Ave Suite 14,Philadelphia,(267) 669-0339,PA,19116,"11749 Bustleton Ave Suite 14 Philadelphia, PA 19116"
Dollar General # 3288,2600 Willow Street Pike N,Willow Street,(717) 464-3280,PA,17584,"2600 Willow Street Pike N Willow Street, PA 17584"
Dollar General # 19275,332 W Trenton Ave Ste 11,Morrisville,(267) 797-8245,PA,19067,"332 W Trenton Ave Ste 11 Morrisville, PA 19067"
Dollar General # 13359,600 E. Chelten Avenue,Philadelphia,(484) 326-2173,PA,19144,"600 E. Chelten Avenue Philadelphia, PA 19144"
Dollar General # 10788,9808 Bustleton Ave,Philadelphia,(267) 831-4129,PA,19115,"9808 Bustleton Ave Philadelphia, PA 19115"
Dollar General # 7912,9355 Krewstown Rd,Philadelphia,(267) 831-4185,PA,19115,"9355 Krewstown Rd Philadelphia, PA 19115"
Dollar General # 13319,6000 N Broad St Store A,Philadelphia,(267) 529-6422,PA,19141,"6000 N Broad St Store A Philadelphia, PA 19141"
Dollar General # 8962,138 W Chelten Ave,Philadelphia,(215) 991-1967,PA,19144,"138 W Chelten Ave Philadelphia, PA 19144"
Dollar General # 9185,7770 Dungan Rd,Philadelphia,(267) 691-0940,PA,19111,"7770 Dungan Rd Philadelphia, PA 19111"
Dollar General # 15107,5101 Germantown Ave,Philadelphia,(267) 270-2807,PA,19144,"5101 Germantown Ave Philadelphia, PA 19144"
Dollar General # 20221,2417 Welsh Rd,Philadelphia,(215) 673-3080,PA,19114,"2417 Welsh Rd Philadelphia, PA 19114"
Dollar General # 7879,5921 Rising Sun Ave,Philadelphia,(267) 831-4225,PA,19120,"5921 Rising Sun Ave Philadelphia, PA 19120"
Dollar General # 19272,4551 New Falls Rd,Levittown,(267) 585-2023,PA,19056,"4551 New Falls Rd Levittown, PA 19056"
Dollar General # 11045,919a Levick St,Philadelphia,(267) 831-4013,PA,19111,"919a Levick St Philadelphia, PA 19111"
Dollar General # 6610,1911 Street Rd,Bensalem,(267) 529-6367,PA,19020,"1911 Street Rd Bensalem, PA 19020"
Dollar General # 17970,1279 Old Bristol Pike,Morrisville,(267) 797-7956,PA,19067,"1279 Old Bristol Pike Morrisville, PA 19067"
Dollar General # 16819,5700 Oxford Ave,Philadelphia,(215) 543-6888,PA,19149,"5700 Oxford Ave Philadelphia, PA 19149"
Dollar General # 16385,994 Gap Newport Pike,Cochranville,(717) 740-2100,PA,19330,"994 Gap Newport Pike Cochranville, PA 19330"
Dollar General # 19279,6587 Roosevelt Blvd,Philadelphia,(267) 669-0297,PA,19149,"6587 Roosevelt Blvd Philadelphia, PA 19149"
Dollar General # 9532,9212 Frankford Ave,Philadelphia,(267) 691-0950,PA,19114,"9212 Frankford Ave Philadelphia, PA 19114"
Dollar General # 18244,8045 Frankford Ave Suite 1,Philadelphia,(267) 669-0397,PA,19136,"8045 Frankford Ave Suite 1 Philadelphia, PA 19136"
Dollar General # 19280,8445 Frankford Ave Ste C,Philadelphia,(267) 669-0450,PA,19136,"8445 Frankford Ave Ste C Philadelphia, PA 19136"
Dollar General # 12908,2815a Ridge Ave,Philadelphia,(267) 529-6394,PA,19121,"2815a Ridge Ave Philadelphia, PA 19121"
Dollar General # 12358,1300 W Lehigh Ave,Philadelphia,(267) 831-4520,PA,19132,"1300 W Lehigh Ave Philadelphia, PA 19132"
Dollar General # 19282,9 S 69th St,Upper Darby,(484) 257-9175,PA,19082,"9 S 69th St Upper Darby, PA 19082"
Dollar General # 14849,704 Garrett Rd,Upper Darby,(484) 469-0917,PA,19082,"704 Garrett Rd Upper Darby, PA 19082"
Dollar General # 12067,1240 E Erie Ave,Philadelphia,(267) 691-0930,PA,19124,"1240 E Erie Ave Philadelphia, PA 19124"
Dollar General # 220,17 E State St,Quarryville,(717) 786-8657,PA,17566,"17 E State St Quarryville, PA 17566"
Dollar General # 13947,801 N. 48th Street,Philadelphia,(267) 529-6411,PA,19139,"801 N. 48th Street Philadelphia, PA 19139"
Dollar General # 11047,610 Bristol Pike,Bristol,(215) 781-7971,PA,19007,"610 Bristol Pike Bristol, PA 19007"
Dollar General # 18067,2101 E Allegheny Ave,Philadelphia,(267) 764-4240,PA,19134,"2101 E Allegheny Ave Philadelphia, PA 19134"
Dollar General # 19271,63 N Union Ave,Lansdowne,(610) 626-0246,PA,19050,"63 N Union Ave Lansdowne, PA 19050"
Dollar General # 13188,3501 Cedar St,Philadelphia,(267) 529-6403,PA,19134,"3501 Cedar St Philadelphia, PA 19134"
Dollar General # 14790,901 West Girard Ave.,Philadelphia,(267) 234-7859,PA,19123,"901 West Girard Ave. Philadelphia, PA 19123"
Dollar General # 19278,2495 Aramingo Ave,Philadelphia,(267) 831-3607,PA,19125,"2495 Aramingo Ave Philadelphia, PA 19125"
DGX # 18538,1001 N 2nd St,Philadelphia,(267) 831-3870,PA,19123,"1001 N 2nd St Philadelphia, PA 19123"
Dollar General # 12415,501 Spring Garden St,Philadelphia,(267) 831-4330,PA,19123,"501 Spring Garden St Philadelphia, PA 19123"
Dollar General # 19028,901 Cedar Ave,Yeadon,(484) 496-8351,PA,19050,"901 Cedar Ave Yeadon, PA 19050"
Dollar General # 11242,6140 Woodland Ave,Philadelphia,(267) 768-4765,PA,19142,"6140 Woodland Ave Philadelphia, PA 19142"
Dollar General # 10553,33b Friendly Dr,Quarryville,(717) 327-4740,PA,17566,"33b Friendly Dr Quarryville, PA 17566"
Dollar General # 15369,1106 Chester Pike - Us 13,Sharon Hill,(724) 418-2751,PA,19079,"1106 Chester Pike - Us 13 Sharon Hill, PA 19079"
Dollar General # 3415,345 Scarlet Rd,Kennett Square,(484) 730-1474,PA,19348,"345 Scarlet Rd Kennett Square, PA 19348"
Dollar General # 13755,2120 S. 23rd Street,Philadelphia,(215) 600-0024,PA,19145,"2120 S. 23rd Street Philadelphia, PA 19145"
Dollar General # 15941,7620 Lindbergh Blvd,Philadelphia,(267) 296-8755,PA,19153,"7620 Lindbergh Blvd Philadelphia, PA 19153"
Dollar General # 19277,2201 Oregon Ave,Philadelphia,(267) 831-3257,PA,19145,"2201 Oregon Ave Philadelphia, PA 19145"
Dollar General # 18038,1871 Delmar Dr,Folcroft,(610) 532-2643,PA,19032,"1871 Delmar Dr Folcroft, PA 19032"
Dollar General # 14498,2715 S Front Street,Philadelphia,(267) 768-4740,PA,19148,"2715 S Front Street Philadelphia, PA 19148"
Dollar General # 16389,801 Ave Of The States,Chester,(484) 483-4708,PA,19013,"801 Ave Of The States Chester, PA 19013"
Dollar General # 16680,1200 Highland Ave,Chester,(484) 483-5511,PA,19013,"1200 Highland Ave Chester, PA 19013"
Dollar General # 16877,2617 Delta Rd,Brogue,(717) 373-3511,PA,17309,"2617 Delta Rd Brogue, PA 17309"
Dollar General # 16233,1993 Lancaster Pike,Peach Bottom,(717) 283-2629,PA,17563,"1993 Lancaster Pike Peach Bottom, PA 17563"
Dollar General # 15261,18 Rich Lynn Dr.,Delta,(717) 429-8240,PA,17314,"18 Rich Lynn Dr. Delta, PA 17314"
Dollar General # 968,345 N 3rd St,Oxford,(610) 932-5421,PA,19363,"345 N 3rd St Oxford, PA 19363"
Dollar General # 17276,175 N Market St,Fawn Grove,(717) 382-6277,PA,17321,"175 N Market St Fawn Grove, PA 17321"
Dollar General # 16239,2636 Baltimore Pike,Nottingham,(484) 365-2731,PA,19362,"2636 Baltimore Pike Nottingham, PA 19362"
Dollar General # 16326,15 North Hill Street,Stewartstown,(717) 993-7111,PA,17363,"15 North Hill Street Stewartstown, PA 17363"
